{
"type": "FeatureCollection",
"name": "R04",
"crs": { "type": "name", "properties": { "name": "urn:ogc:def:crs:OGC:1.3:CRS84" } },
"features": [
{ "type": "Feature", "properties": { "REG_CODE": "R04", "Region_Nam": "القصيم", "region_n_1": "Al Qaseem", "GovCounts": "13", "TotalConfi": 13975, "TotalDeath": 191, "TotalRecov": 13538, "TotalActiv": 246, "TotalCalcu": 2313, "GlobalID": "{7c50fd28-fe5e-4b8e-afc9-0804419a0806}", "Shape__Are": 87800636149.600006, "Shape__Len": 1648646.36283 }, "geometry": { "type": "MultiPolygon", "coordinates": [ [ [ [ 44.669783273033687, 27.834216690298831 ], [ 44.708683273106821, 27.725783315761625 ], [ 44.70868359739864, 27.725783096293423 ], [ 44.789433272374183, 27.670916689364493 ], [ 44.872726897182602, 27.625999315644407 ], [ 44.880974294771811, 27.621551768729159 ], [ 44.883450022948757, 27.620216690992681 ], [ 44.883450360715308, 27.620216584336273 ], [ 44.895858942448449, 27.616280593779184 ], [ 44.938883273280986, 27.602633315988985 ], [ 44.972703005775017, 27.58031339696371 ], [ 44.989466647853341, 27.569249941183763 ], [ 44.989466593954418, 27.569249797051022 ], [ 44.900850022591193, 27.333899940685622 ], [ 44.850833271164092, 26.917416686039584 ], [ 44.821730146662588, 26.936674814863753 ], [ 44.821730416157187, 26.93667425106181 ], [ 44.821890021630338, 26.936339940037694 ], [ 44.821730329020596, 26.936674308723365 ], [ 44.821730147560906, 26.936674689129511 ], [ 44.821729965202906, 26.936674810058623 ], [ 44.779246794768873, 26.964786695829822 ], [ 44.778513385916405, 26.965272006373368 ], [ 44.76994489720699, 26.970941930917117 ], [ 44.769012272567224, 26.971559065395791 ], [ 44.757672523427118, 26.979062689692597 ], [ 44.700416647977278, 27.01694994025339 ], [ 44.417250022120733, 26.983633315317331 ], [ 44.383933271625644, 26.634266690000924 ], [ 44.383940397960785, 26.634212210212105 ], [ 44.393003772153484, 26.564917064933461 ], [ 44.416666647192066, 26.383999939840024 ], [ 44.50036664827546, 26.117200064033074 ], [ 44.61059789720192, 25.970227064669693 ], [ 44.800083271682944, 25.717583314810597 ], [ 44.787913021977829, 25.68336993900224 ], [ 44.717100021991705, 25.484300064235672 ], [ 44.62229414815242, 25.525623565312728 ], [ 44.45043327218481, 25.600533312769393 ], [ 44.428841772054227, 25.573663939159772 ], [ 44.408878648039163, 25.54882081424925 ], [ 44.383683272278702, 25.517466688707049 ], [ 44.365976647985384, 25.511568438391002 ], [ 44.365785397559698, 25.511305564395737 ], [ 44.36562227158894, 25.511450312823083 ], [ 44.337053521612305, 25.501933812868355 ], [ 44.337053147014828, 25.501925189272605 ], [ 44.336481397184258, 25.502098564292279 ], [ 44.336112896576623, 25.501620437682131 ], [ 44.23363327222058, 25.46748331389017 ], [ 44.226853147782165, 25.469651939239714 ], [ 44.226853233122114, 25.469652037372029 ], [ 44.2325900218502, 25.47626993769212 ], [ 44.226853048967477, 25.469652094953805 ], [ 44.22685302201802, 25.469652064135389 ], [ 44.217319648370356, 25.472701313680414 ], [ 44.206107522882668, 25.476287564042483 ], [ 44.20125927217515, 25.477838314314106 ], [ 44.201247772841185, 25.477841939285948 ], [ 44.195433598742945, 25.479701647344562 ], [ 44.191690397107443, 25.4808989388825 ], [ 44.187194021886604, 25.482337064374956 ], [ 44.183766647243758, 25.483433312850497 ], [ 44.173396522553325, 25.479063313399021 ], [ 44.168487022014787, 25.476994438979499 ], [ 44.16848064667122, 25.476991689009452 ], [ 44.159395694047085, 25.473163229363571 ], [ 44.147018895607012, 25.467947564269913 ], [ 44.139600171409519, 25.464821291914571 ], [ 44.136327412098424, 25.463442141927462 ], [ 44.127180397566249, 25.459587564164995 ], [ 44.126688647203309, 25.459380313905111 ], [ 44.124556272195946, 25.45848168892292 ], [ 44.113046397412397, 25.453631439379983 ], [ 44.113037896654859, 25.453537814325898 ], [ 44.11287627176894, 25.453559688594577 ], [ 44.067133272374022, 25.43428331293023 ], [ 44.009314772180261, 25.346700062958153 ], [ 44.009268647283683, 25.346630313876641 ], [ 44.000666646922589, 25.333600064334931 ], [ 43.969891957103343, 25.333658401196818 ], [ 43.786950147408767, 25.334005187887641 ], [ 43.786955248941261, 25.334025036160128 ], [ 43.788180021881097, 25.338789939293541 ], [ 43.788190021926845, 25.338999937986706 ], [ 43.786909021636738, 25.334024937917444 ], [ 43.767250022261116, 25.333983313051277 ], [ 43.717466645958289, 25.284000063179146 ], [ 43.717416438218756, 25.243702797612457 ], [ 43.717383272418466, 25.217083314098613 ], [ 43.701846395743267, 25.185709938047633 ], [ 43.700950021718484, 25.183900062898591 ], [ 43.616716646833453, 25.167033314336425 ], [ 43.56731664723938, 25.183600063047599 ], [ 43.566328020726495, 25.185060438908323 ], [ 43.565712792436166, 25.185969270771825 ], [ 43.562286698790906, 25.191030379598399 ], [ 43.555598271681752, 25.200910689325795 ], [ 43.533650021805748, 25.233333312617205 ], [ 43.484118146833026, 25.2089899376159 ], [ 43.484120021617017, 25.209049937978712 ], [ 43.484130020764447, 25.209249937619848 ], [ 43.483410348050995, 25.212548443673317 ], [ 43.483419772276633, 25.212350064362237 ], [ 43.484119770987057, 25.209049563296556 ], [ 43.484117897101378, 25.208989814076386 ], [ 43.467216645697931, 25.200683313368373 ], [ 43.451727370749651, 25.181236190140851 ], [ 43.451727396800791, 25.181236187702012 ], [ 43.451673525731522, 25.181168557960202 ], [ 43.400816520730359, 25.117316687832936 ], [ 43.283333271329887, 25.033500062712275 ], [ 43.166900021342514, 25.017250063079164 ], [ 43.100799895950594, 24.934316688893162 ], [ 43.13351664639606, 24.914445688051426 ], [ 43.171728146194418, 24.933241938912648 ], [ 43.188750396175053, 24.935563187980865 ], [ 43.198595521158907, 24.934527063389925 ], [ 43.205605022320306, 24.93043806287341 ], [ 43.214269770902305, 24.923027313317469 ], [ 43.21727689568894, 24.914770937775785 ], [ 43.207472271249657, 24.904261687788281 ], [ 43.18814939630051, 24.892810063219265 ], [ 43.172473270874818, 24.887370688172286 ], [ 43.151086021588696, 24.87559681393531 ], [ 43.139815146281428, 24.867905062801615 ], [ 43.133516644599432, 24.861012313659199 ], [ 43.131695647229108, 24.854423312834015 ], [ 43.13213002129654, 24.849869937815651 ], [ 43.136979896158103, 24.843399937635585 ], [ 43.144833645701596, 24.834167437880016 ], [ 43.167583146996954, 24.800933313256262 ], [ 43.150450020655747, 24.800633313382956 ], [ 43.117400021291019, 24.784266687683214 ], [ 43.1169000208005, 24.766966688323109 ], [ 43.148674895755406, 24.767115062604308 ], [ 43.152339769688027, 24.767132314372873 ], [ 43.153528770814937, 24.767137812914779 ], [ 43.163405895585846, 24.767184063138711 ], [ 43.163952646200372, 24.767186563216466 ], [ 43.188697397369914, 24.767302313090632 ], [ 43.197401770639097, 24.767342938289548 ], [ 43.216750022096704, 24.767433437693541 ], [ 43.203505396294929, 24.733880313034618 ], [ 43.200912771248376, 24.727312438303493 ], [ 43.193850271281867, 24.709420313811947 ], [ 43.193776772023639, 24.709234188003766 ], [ 43.18657339735595, 24.690985437976877 ], [ 43.182753022352706, 24.681307062825649 ], [ 43.150783271371644, 24.600316688165162 ], [ 43.106486520956594, 24.56723106262638 ], [ 43.095062394858481, 24.558698312755652 ], [ 43.083416645396625, 24.550000063173155 ], [ 42.95741102140353, 24.582060437152222 ], [ 42.953906271271997, 24.582952188141387 ], [ 42.950050021149572, 24.583933313159555 ], [ 42.933445645879537, 24.577699938386957 ], [ 42.915915270146655, 24.571118890918093 ], [ 42.817350021403499, 24.534116688203934 ], [ 42.817416645854856, 24.483600062768275 ], [ 42.567133396250888, 24.483950062867617 ], [ 42.523068053649652, 24.566514571984037 ], [ 42.506289145601393, 24.597952937900768 ], [ 42.502182646400371, 24.605647063076546 ], [ 42.491425020835749, 24.625803562773779 ], [ 42.472251395581168, 24.661728938258431 ], [ 42.469498520071085, 24.666886937948519 ], [ 42.462841395656312, 24.679360437749409 ], [ 42.434000019567364, 24.733400063275383 ], [ 42.364618019659154, 24.729685062816266 ], [ 42.133933394558873, 24.717333312955812 ], [ 42.129126962224461, 24.733415094744259 ], [ 42.128593144655078, 24.735201187961668 ], [ 42.088279019356627, 24.870091374278314 ], [ 42.084266645631075, 24.883516687968935 ], [ 42.059926021355032, 24.931336813612411 ], [ 42.059676020211462, 24.93146131281642 ], [ 42.052902019588338, 24.944668564109069 ], [ 42.050133394814679, 24.95006668819131 ], [ 42.034541145087069, 24.981407312934792 ], [ 42.034540874694166, 24.9814078552408 ], [ 42.034540769591281, 24.98140756291669 ], [ 41.950383270008409, 25.150566563331324 ], [ 41.919303268875225, 25.171481276983826 ], [ 41.85096676961718, 25.217467062650964 ], [ 41.830541541440191, 25.217386643191794 ], [ 41.816933271323208, 25.217333064052163 ], [ 41.783883270161844, 25.200783063660154 ], [ 41.733416770001213, 25.200033063368807 ], [ 41.733539625396098, 25.194879389356778 ], [ 41.733799764925969, 25.183966726180135 ], [ 41.733799769417544, 25.183966563594744 ], [ 41.72484326869251, 25.185259046403615 ], [ 41.713890769796663, 25.186839563219351 ], [ 41.713719031677272, 25.187353064615735 ], [ 41.713890270333359, 25.186839438031551 ], [ 41.617366645194309, 25.200766688693232 ], [ 41.500066644026965, 25.300900063955339 ], [ 41.484033394258383, 25.333683314316573 ], [ 41.478881769902991, 25.341381438639495 ], [ 41.450183393929166, 25.384266689278178 ], [ 41.433966644399185, 25.400716687690768 ], [ 41.433334518798368, 25.401553438941516 ], [ 41.383883395183162, 25.467016688649 ], [ 41.372271769125689, 25.478506313684161 ], [ 41.350550018668791, 25.500000063860366 ], [ 41.300650018584214, 25.534033314377833 ], [ 41.300568763271812, 25.534090057136808 ], [ 41.300690768860441, 25.534207063712604 ], [ 41.319883769877386, 25.61668356305324 ], [ 41.450000269663548, 25.732020064156199 ], [ 41.450357768603908, 25.73182506301789 ], [ 41.450357801841577, 25.731825181975399 ], [ 41.450547770371337, 25.732502565369646 ], [ 41.450562770439952, 25.732515564032681 ], [ 41.450594268068762, 25.732543124786591 ], [ 41.450594602242042, 25.732543416918574 ], [ 41.450594770227006, 25.732543564198416 ], [ 41.454766770086962, 25.73621656375909 ], [ 41.569133269693424, 25.72530656394866 ], [ 41.569605770058139, 25.725414063682475 ], [ 41.585916769929412, 25.768200063844048 ], [ 41.700300269254313, 25.789383064038219 ], [ 41.671616770279911, 25.885766563692048 ], [ 41.751099770399186, 25.857650064395997 ], [ 41.786816269564497, 25.857683063929173 ], [ 41.7880697697288, 25.856814063718623 ], [ 41.789139770131705, 25.857190064236505 ], [ 41.791530269747753, 25.859100064344151 ], [ 41.794610268565187, 25.861240064050786 ], [ 41.796938770053579, 25.862873565152167 ], [ 41.81098376962067, 25.870076063681385 ], [ 41.820639863017604, 25.875027723109291 ], [ 41.837972770186433, 25.883916064132194 ], [ 41.838087713220297, 25.883974904064214 ], [ 41.838266769914306, 25.884066564794377 ], [ 41.859733270371422, 25.891049564196905 ], [ 41.872433270972621, 25.905283064600543 ], [ 41.873857802282181, 25.907723007904774 ], [ 41.90030976930985, 25.95303006532 ], [ 41.900910269721095, 25.952800564341842 ], [ 41.900750269887517, 25.953783065086096 ], [ 41.900933270185625, 25.970383063961261 ], [ 41.918766769834725, 26.002267064299694 ], [ 41.923548769790052, 26.004065564867652 ], [ 41.928408771359805, 26.005893563859644 ], [ 41.928579771064022, 26.00615006424762 ], [ 41.932610270097065, 26.008050063760749 ], [ 41.936890269912055, 26.009084064013976 ], [ 41.941199771299289, 26.010705563709465 ], [ 41.941203768802303, 26.010707564265342 ], [ 41.942140269672514, 26.011139564052861 ], [ 41.945012519605761, 26.012915689733376 ], [ 41.945659895905159, 26.012383188998193 ], [ 41.957800019708905, 26.016950065064385 ], [ 41.98586664467939, 26.034400064186944 ], [ 42.011657994240373, 26.10203392099401 ], [ 42.011671398002726, 26.102069063167917 ], [ 42.011708227132743, 26.102165577238619 ], [ 42.01170827025188, 26.102165564331465 ], [ 42.019561269702116, 26.122759064239069 ], [ 42.021938270334381, 26.128993563647864 ], [ 42.02304672581797, 26.131899094366688 ], [ 42.023600268594372, 26.133350064006169 ], [ 42.030910078351859, 26.138143635727204 ], [ 42.043764270280001, 26.146573063804251 ], [ 42.075565270039995, 26.167426063622994 ], [ 42.09201727037658, 26.178214564044019 ], [ 42.107210508217939, 26.188177370947393 ], [ 42.137317159587944, 26.207919491954065 ], [ 42.137317270080729, 26.207919563685049 ], [ 42.137521271193542, 26.208053565140137 ], [ 42.184383269598548, 26.238783064645546 ], [ 42.199752770373365, 26.261132064044833 ], [ 42.217416270143154, 26.286816564168316 ], [ 42.18721676980369, 26.292866565073314 ], [ 42.176216769792248, 26.301400063703358 ], [ 42.167433270217899, 26.321400065153647 ], [ 42.185283769585432, 26.333966564023203 ], [ 42.192633269607121, 26.358400065018238 ], [ 42.200016269602393, 26.356283563704345 ], [ 42.201733269910591, 26.367016564685535 ], [ 42.210168269867097, 26.376008564708187 ], [ 42.220587769558797, 26.387116563900431 ], [ 42.22589677066712, 26.392776065123766 ], [ 42.234033270336184, 26.401449565005667 ], [ 42.236916769871733, 26.403383565101354 ], [ 42.240016770577284, 26.417283063630958 ], [ 42.270427770267233, 26.446837565032205 ], [ 42.274316770269976, 26.450617064695319 ], [ 42.275177770435505, 26.460177564920823 ], [ 42.276366270302482, 26.473383564672986 ], [ 42.292634769979358, 26.469232063715406 ], [ 42.292976771184435, 26.46926556533468 ], [ 42.341828537045451, 26.457154217136697 ], [ 42.352181270351963, 26.454587564220592 ], [ 42.352626269692571, 26.45392206498563 ], [ 42.366949771252251, 26.450267064729349 ], [ 42.519766771031669, 26.500899564898045 ], [ 42.538512771261537, 26.510298065395173 ], [ 42.547729769944233, 26.514919064777501 ], [ 42.60051664543321, 26.541383315098404 ], [ 42.600516663399503, 26.541383511187416 ], [ 42.601191223617704, 26.548757272225913 ], [ 42.60401372125726, 26.579610537835102 ], [ 42.604115268613604, 26.580720565227523 ], [ 42.604121266664762, 26.580786065385553 ], [ 42.604121279241184, 26.580786185890638 ], [ 42.604900769871094, 26.589310065171691 ], [ 42.605133270036291, 26.591850064618288 ], [ 42.621266770892269, 26.61986656419122 ], [ 42.646827274086483, 26.643882831295979 ], [ 42.663367269795053, 26.659423565371473 ], [ 42.663300771107828, 26.659947564612104 ], [ 42.663750771369621, 26.659751565331021 ], [ 42.690516770555988, 26.684933064918255 ], [ 42.700950271389701, 26.701933064273391 ], [ 42.712271517929899, 26.714124366078664 ], [ 42.715432770263092, 26.717528565182327 ], [ 42.71542762740809, 26.71764392217003 ], [ 42.715422283330469, 26.717763778120098 ], [ 42.715422269855736, 26.717764065380727 ], [ 42.715439770834109, 26.71776956425515 ], [ 42.715956270681431, 26.718092065192742 ], [ 42.727419770836768, 26.730435564906045 ], [ 42.729432271059352, 26.732603064681193 ], [ 42.729432271059352, 26.732603189839885 ], [ 42.733933394774795, 26.73744993990514 ], [ 42.73441289571052, 26.738286940085963 ], [ 42.736852644563704, 26.742544939718734 ], [ 42.736853270689458, 26.742546065246341 ], [ 42.738722895662747, 26.745808939007308 ], [ 42.741850270729941, 26.751266564987326 ], [ 42.740083270193026, 26.754050064838417 ], [ 42.766683770059657, 26.80050006490557 ], [ 42.784216769771497, 26.80020006437708 ], [ 42.833883270764282, 26.817400065896322 ], [ 42.873777271072335, 26.85718906527762 ], [ 42.877735270672055, 26.861283064830573 ], [ 42.91699977115487, 26.900300065373404 ], [ 42.932011115422547, 26.908039878090378 ], [ 42.93588077110396, 26.910035063607456 ], [ 42.93620576899734, 26.910202688380778 ], [ 42.937767270929847, 26.911008065319873 ], [ 42.946862271210442, 26.915697565188513 ], [ 42.946862521840401, 26.915697315275274 ], [ 42.949269271081626, 26.913290565846268 ], [ 42.950100270211621, 26.917366564769537 ], [ 43.066716771127048, 26.950883564744032 ], [ 43.100133770912912, 26.984183564256181 ], [ 43.117266770591662, 27.016750065121325 ], [ 43.150183272220332, 27.033899565384353 ], [ 43.167316771362387, 27.050933065687794 ], [ 43.234299770897003, 27.166750065650696 ], [ 43.300033273160224, 27.13408306466329 ], [ 43.300283269812212, 27.183733008324843 ], [ 43.30028327071053, 27.183733566091657 ], [ 43.31698299585976, 27.200349791294926 ], [ 43.316983270744238, 27.200350065342946 ], [ 43.30083367836658, 27.216999646914587 ], [ 43.30083327232807, 27.217000064715464 ], [ 43.350500270987517, 27.233800064820915 ], [ 43.359125771276446, 27.24278956584013 ], [ 43.434016775004459, 27.300566565104941 ], [ 43.434216768732796, 27.316816007963567 ], [ 43.43421677232606, 27.316816565063533 ], [ 43.450416762886093, 27.317416564089676 ], [ 43.450000270682715, 27.333883566224294 ], [ 43.434133267632184, 27.366800064931279 ], [ 43.433683276353548, 27.400449508124431 ], [ 43.433683271861966, 27.400450066398847 ], [ 43.417500271138884, 27.400350065847292 ], [ 43.417249774125288, 27.450132508087137 ], [ 43.41724977232866, 27.450133065313231 ], [ 43.415539853439846, 27.461939006808947 ], [ 43.415540151680524, 27.461939413325236 ], [ 43.415550652087873, 27.461953913999292 ], [ 43.415200151921894, 27.462435413887743 ], [ 43.411097270236532, 27.487051702690842 ], [ 43.411096770773227, 27.487052007907028 ], [ 43.410831967190404, 27.488640852303966 ], [ 43.409262312148378, 27.498058889879633 ], [ 43.408652658802716, 27.501716829229274 ], [ 43.408093939035339, 27.505069168853534 ], [ 43.407566087177763, 27.508236296244682 ], [ 43.4063544961164, 27.515505872268506 ], [ 43.40547319941534, 27.520793677965592 ], [ 43.404391256809056, 27.527285362787577 ], [ 43.403710605114902, 27.531369289694538 ], [ 43.400731789836129, 27.549242259811212 ], [ 43.400533284616223, 27.550433295069457 ], [ 43.399363618827486, 27.560734278945965 ], [ 43.397840130004546, 27.574151297192902 ], [ 43.397668145746771, 27.575665921966426 ], [ 43.394422848832221, 27.604246504766 ], [ 43.394261932717058, 27.605663647660592 ], [ 43.393200021643288, 27.615015509283865 ], [ 43.39320030820587, 27.615016742258621 ], [ 43.3926004231406, 27.620299602785071 ], [ 43.392600401581035, 27.620299788239723 ], [ 43.405876902304023, 27.627577039287932 ], [ 43.40865565288756, 27.629100163617622 ], [ 43.490083652022342, 27.673733164152988 ], [ 43.541509597822177, 27.708274857956521 ], [ 43.633343371289435, 27.769957610057538 ], [ 43.658567029608307, 27.786899793715804 ], [ 43.732674280200385, 27.803322418616851 ], [ 43.732814155076646, 27.803300294335298 ], [ 43.732833155343215, 27.803357417929021 ], [ 43.871783655294081, 27.83414991927124 ], [ 43.901933655766427, 27.817516417921524 ], [ 43.901533655733353, 27.834266919077933 ], [ 43.918566655852992, 27.82446691876568 ], [ 43.933383654998842, 27.834099919220325 ], [ 43.983666656296379, 27.840516417943039 ], [ 44.020683656379973, 27.868882919382202 ], [ 44.051767155552874, 27.883632919094541 ], [ 44.069767156143243, 27.900216419060733 ], [ 44.101367156061798, 27.920899918636731 ], [ 44.103033655779662, 27.925783418798591 ], [ 44.108699656365054, 27.929025419005107 ], [ 44.117567155604995, 27.934099418683605 ], [ 44.13508365596001, 27.943199419224133 ], [ 44.158550155684217, 27.966949418990783 ], [ 44.183983655961882, 27.988633418950048 ], [ 44.185330155114301, 27.989889419044346 ], [ 44.250700656256036, 28.050916919095219 ], [ 44.19041665610316, 28.119849919125855 ], [ 44.186933655981292, 28.124416418629465 ], [ 44.190617154684681, 28.136249918871215 ], [ 44.225117155292232, 28.155116418996347 ], [ 44.233600655290928, 28.157699918811492 ], [ 44.317633654663631, 28.238583419933235 ], [ 44.367366650750377, 28.250799931909174 ], [ 44.538866648315519, 28.089633316634956 ], [ 44.64599016114353, 28.012088214988786 ], [ 44.650233275234633, 28.00901669603871 ], [ 44.650267022244911, 27.977290440933995 ], [ 44.650400023212619, 27.852149940687205 ], [ 44.669783273033687, 27.834216690298831 ], [ 44.669783273033687, 27.834216690298831 ] ] ] ] } }
]
}
