{
"type": "FeatureCollection",
"name": "NAJRAN",
"crs": { "type": "name", "properties": { "name": "urn:ogc:def:crs:OGC:1.3:CRS84" } },
"features": [
{ "type": "Feature", "properties": { "REG_CODE": "R11", "Region_Nam": "نجران", "region_n_1": "Najran", "GovCounts": "7", "TotalConfi": 6471, "TotalDeath": 66, "TotalRecov": 6327, "TotalActiv": 78, "TotalCalcu": 898, "GlobalID": "{1a241276-75d1-42f6-8979-9257eb8ce0db}", "Shape__Are": 142086511600.0, "Shape__Len": 2365764.4555000002 }, "geometry": { "type": "MultiPolygon", "coordinates": [ [ [ [ 45.088888898360693, 19.448888933295187 ], [ 45.111568253808784, 19.268703457623744 ], [ 45.111500023169697, 19.267700059354816 ], [ 45.112000022761883, 19.265190058302032 ], [ 45.112013148944818, 19.265168807991795 ], [ 45.115593142862863, 19.23672605835543 ], [ 45.115593158134217, 19.23672593537249 ], [ 45.119166774013756, 19.208333557914784 ], [ 45.210931023267911, 19.244492683076817 ], [ 45.361666772959403, 19.303889057884042 ], [ 45.380986207361012, 19.304149077817076 ], [ 45.405587320611573, 19.30448018262835 ], [ 45.406988928711719, 19.295895334847934 ], [ 46.537315222008083, 19.315746013899282 ], [ 47.504516538082605, 19.332731908068904 ], [ 47.510835235688816, 19.332816958119736 ], [ 47.524399783902609, 19.332999550897313 ], [ 47.631914496867168, 19.333006756852058 ], [ 47.632143595112396, 19.333006772109929 ], [ 47.644658905684437, 19.333170829769291 ], [ 47.644747931424035, 19.333007618074248 ], [ 49.489401692743691, 19.333131465338134 ], [ 49.784984153330981, 19.333151309881575 ], [ 50.21481065324604, 19.333180175207143 ], [ 50.245055338844296, 19.333182206197474 ], [ 50.737113526585397, 19.333215248779005 ], [ 51.985251188821238, 19.33329906777853 ], [ 51.985252689007751, 19.333259267681907 ], [ 51.985333690096915, 19.333299073712137 ], [ 51.993449020067999, 19.333299618756307 ], [ 51.997539326237707, 19.333299893397541 ], [ 52.001691667365982, 19.022077934205416 ], [ 52.001693027415328, 19.022078240788645 ], [ 52.001693966154797, 19.021905624998062 ], [ 52.001752708787862, 19.011105178150324 ], [ 52.001504948042601, 19.000517137998855 ], [ 52.000000000447116, 19.000000000119819 ], [ 50.783333332868509, 18.788888889275572 ], [ 49.116666666700013, 18.61666666690828 ], [ 48.183333333430049, 18.166666667108441 ], [ 48.000000000205425, 17.941428570722557 ], [ 47.600000000360907, 17.449999999812285 ], [ 47.466666666779972, 17.116666667281436 ], [ 47.183333333369632, 16.949999999689279 ], [ 47.000000000145, 16.949999999689279 ], [ 46.750000000129894, 17.283333332946913 ], [ 46.382461482764768, 17.235393526081161 ], [ 46.366666667432156, 17.233333332747996 ], [ 46.100000000270278, 17.249999999798071 ], [ 45.399999999868655, 17.333333333353664 ], [ 45.216666666644016, 17.433333332946969 ], [ 44.649999999823336, 17.433333332946969 ], [ 44.566666666784407, 17.405555556176026 ], [ 44.466666666598698, 17.433333332946969 ], [ 44.366111111410369, 17.433333332946969 ], [ 44.334551568917277, 17.42960088110987 ], [ 44.271222221560741, 17.42211111096022 ], [ 44.263222221797406, 17.421416666932696 ], [ 44.239694444394402, 17.4192777777501 ], [ 44.226972222168015, 17.417888888646043 ], [ 44.208333332561047, 17.413888888740331 ], [ 44.190277778356865, 17.414583333106872 ], [ 44.179277778345416, 17.413805556370367 ], [ 44.138055556007721, 17.408888888692044 ], [ 44.130833332888734, 17.383611110943946 ], [ 44.110833333031259, 17.36638888879747 ], [ 44.100611110562483, 17.36605555569604 ], [ 44.066666666754195, 17.405833332850548 ], [ 44.049583333130869, 17.404916666851001 ], [ 44.023277778019782, 17.391305556112581 ], [ 44.011361111041282, 17.402472221997321 ], [ 44.004000000294546, 17.390694444264433 ], [ 43.99233333266298, 17.372083333402774 ], [ 43.966666666568486, 17.330555555955453 ], [ 43.90555555609248, 17.34166666715635 ], [ 43.842416666847541, 17.339416666761728 ], [ 43.831944444133505, 17.338888888961929 ], [ 43.805833332958933, 17.356611110775116 ], [ 43.788888888760006, 17.374999999589338 ], [ 43.767833333409392, 17.374444443910001 ], [ 43.720438728364009, 17.370000587672234 ], [ 43.720397848730386, 17.370502155133533 ], [ 43.71974804697971, 17.372094881764912 ], [ 43.718418200796037, 17.376265378096534 ], [ 43.718366100306199, 17.376428766903445 ], [ 43.717680285095796, 17.378579535593357 ], [ 43.71768015663671, 17.378579641042368 ], [ 43.717680021889421, 17.378580055979942 ], [ 43.715793598420326, 17.380190301604646 ], [ 43.713650022319676, 17.382020055910285 ], [ 43.71056002165988, 17.383870056410807 ], [ 43.707790021565529, 17.38572005621328 ], [ 43.705010022323755, 17.389120055940381 ], [ 43.700380021806083, 17.393750056811573 ], [ 43.69699002067231, 17.398070055680336 ], [ 43.692980022092385, 17.402080055626985 ], [ 43.691470022371732, 17.405080055785564 ], [ 43.690800022001916, 17.407420056871171 ], [ 43.691300020695792, 17.409920055951972 ], [ 43.691970021963932, 17.412080056654894 ], [ 43.693800022250031, 17.414750056241786 ], [ 43.694300020943906, 17.416910056406973 ], [ 43.692470020657808, 17.42008005580173 ], [ 43.690130020733775, 17.42291005615305 ], [ 43.685970020569385, 17.426410056161458 ], [ 43.684300021913486, 17.42874005619834 ], [ 43.683970022200604, 17.4309000562729 ], [ 43.685460021829762, 17.431740055587369 ], [ 43.687970020734795, 17.432210056251179 ], [ 43.688120022319254, 17.43222005725509 ], [ 43.69131002163985, 17.432070056708866 ], [ 43.692870021589208, 17.431680057111375 ], [ 43.693340021942497, 17.431560055814906 ], [ 43.694490021813024, 17.431250055885798 ], [ 43.694630020656788, 17.431220056141182 ], [ 43.698340020559385, 17.430580055843478 ], [ 43.701630022134047, 17.431380055864892 ], [ 43.701770020977818, 17.431430055964046 ], [ 43.70412002184591, 17.432400056376501 ], [ 43.705120021928607, 17.434730056212835 ], [ 43.706460021769942, 17.438060056246957 ], [ 43.708940022334382, 17.439590055847425 ], [ 43.713460022348883, 17.440880055788657 ], [ 43.713600022090965, 17.440910055658794 ], [ 43.717950022226155, 17.44239005569472 ], [ 43.720450021085448, 17.444560055594387 ], [ 43.722110022390552, 17.446390055700768 ], [ 43.723280020555933, 17.448560056841544 ], [ 43.723780021944762, 17.451220056642818 ], [ 43.723780021944762, 17.453890056001676 ], [ 43.721950021658657, 17.455890056059317 ], [ 43.718450020920038, 17.458890056116534 ], [ 43.716780022264146, 17.461050056383151 ], [ 43.71479002214447, 17.46322005604684 ], [ 43.713650022319676, 17.465950056133028 ], [ 43.713030022178565, 17.469340056279957 ], [ 43.712110020665179, 17.473350057187332 ], [ 43.711180021800992, 17.47736005629265 ], [ 43.710260022084228, 17.481680057348438 ], [ 43.708710022180611, 17.484770055937894 ], [ 43.705630020668238, 17.486310056237279 ], [ 43.705480021778719, 17.486310056237279 ], [ 43.701960021846929, 17.486030056218034 ], [ 43.701810021160789, 17.485990057159295 ], [ 43.700500020558366, 17.485700056009147 ], [ 43.698160020634333, 17.485200055953822 ], [ 43.695170022228588, 17.485460056805309 ], [ 43.695020022440758, 17.485490056187601 ], [ 43.692180022026221, 17.48660005727157 ], [ 43.689920021569812, 17.489600056729493 ], [ 43.690420021162005, 17.49563005565237 ], [ 43.692430022271466, 17.500140055922337 ], [ 43.692672554821769, 17.50526237222341 ], [ 43.692263121579892, 17.505330611170212 ], [ 43.680242354233002, 17.513058247325432 ], [ 43.653911148627294, 17.526223849952064 ], [ 43.651907688151411, 17.526510059289432 ], [ 43.64990422677721, 17.532234234300194 ], [ 43.644180051294015, 17.539389452329317 ], [ 43.6375972498926, 17.548548132354455 ], [ 43.634448953960742, 17.55799302123442 ], [ 43.633881788233069, 17.559765414783804 ], [ 43.632159283947132, 17.565148240389028 ], [ 43.630155822572931, 17.571444832837265 ], [ 43.628438569838146, 17.578600051956247 ], [ 43.627293735280496, 17.588617357706486 ], [ 43.627293735280496, 17.600638126108471 ], [ 43.623573021171502, 17.614662353939746 ], [ 43.620138515701932, 17.626110704767697 ], [ 43.615272967035295, 17.641279767884324 ], [ 43.615272967035295, 17.648955445740334 ], [ 43.614970021883828, 17.648780056406231 ], [ 43.613350020761693, 17.649930055903301 ], [ 43.612010021818683, 17.65243005586052 ], [ 43.611510022226483, 17.653600056719061 ], [ 43.610520021291201, 17.65526005607677 ], [ 43.60866002086788, 17.655900056134183 ], [ 43.607680021774968, 17.654430057027245 ], [ 43.607520021043086, 17.654410057271075 ], [ 43.605180022017365, 17.653950056273956 ], [ 43.604690021572594, 17.655930056375297 ], [ 43.604690020674283, 17.658430056901111 ], [ 43.604190021980401, 17.660260056423077 ], [ 43.604030021248512, 17.660280057241195 ], [ 43.60195002161548, 17.660880056783867 ], [ 43.599030020834988, 17.65909005690947 ], [ 43.597020022420473, 17.658290057392303 ], [ 43.595860020707562, 17.659260057194039 ], [ 43.595690021726554, 17.661920056844554 ], [ 43.596690020910955, 17.664420056332986 ], [ 43.599860021936699, 17.669090055930443 ], [ 43.602360021694302, 17.673580056730163 ], [ 43.603360020878696, 17.677080055801053 ], [ 43.60434002086992, 17.684240055621963 ], [ 43.604520020794972, 17.689580056383839 ], [ 43.605850020590552, 17.695240055798795 ], [ 43.606690021738011, 17.700570055716678 ], [ 43.607350022062093, 17.705060057212375 ], [ 43.608350022144791, 17.708890056367412 ], [ 43.608335249349949, 17.709208982232067 ], [ 43.607615873080533, 17.714742637860898 ], [ 43.607280110675099, 17.720674446883049 ], [ 43.609644127956571, 17.728264186591709 ], [ 43.609520022106807, 17.73305005565846 ], [ 43.610520021291201, 17.737030056185777 ], [ 43.611350020596277, 17.748870055818326 ], [ 43.611520022272224, 17.751350055704552 ], [ 43.611210021752512, 17.754750056907955 ], [ 43.610590021611401, 17.758140056729449 ], [ 43.608430020714103, 17.762460055831625 ], [ 43.605040022275283, 17.766170055718938 ], [ 43.601650022039827, 17.769560056389839 ], [ 43.598870021899735, 17.772640055633875 ], [ 43.597020022420473, 17.775730057371543 ], [ 43.596710021002444, 17.779430056709234 ], [ 43.597640021663267, 17.783130056414716 ], [ 43.600720021379011, 17.78683005732475 ], [ 43.602260022135191, 17.791160056672684 ], [ 43.602880022276302, 17.794860057143648 ], [ 43.603190021897696, 17.798870056136664 ], [ 43.602880021377985, 17.804120057279366 ], [ 43.603500020620778, 17.807520056014663 ], [ 43.604420021235853, 17.813060056650631 ], [ 43.606580022133151, 17.815840055996155 ], [ 43.609360021374926, 17.818310056638211 ], [ 43.612200021789469, 17.818480056389646 ], [ 43.61236002162304, 17.818490055665674 ], [ 43.614350021742716, 17.819990057026935 ], [ 43.617020022277948, 17.819990057026935 ], [ 43.617180022111512, 17.820000057073472 ], [ 43.618850020767411, 17.820300055643091 ], [ 43.619010020600982, 17.820320055700822 ], [ 43.621340022275909, 17.824320056343545 ], [ 43.622340022358607, 17.825990056812014 ], [ 43.624680021384336, 17.828820056638978 ], [ 43.624680021384336, 17.830980056942568 ], [ 43.622510022237918, 17.834650057104074 ], [ 43.619510021091493, 17.839810057390576 ], [ 43.614690020603014, 17.848970056311938 ], [ 43.612360020724736, 17.855470056147194 ], [ 43.611850021985106, 17.858630057094771 ], [ 43.610850021902401, 17.861130056768914 ], [ 43.609855346134388, 17.862840898628189 ], [ 43.607850020755969, 17.866290056927173 ], [ 43.606520020960389, 17.873130056751041 ], [ 43.607190021330204, 17.875620057332277 ], [ 43.607680020876657, 17.876980056588984 ], [ 43.609520022106807, 17.877280057424684 ], [ 43.609580022381266, 17.877280057424684 ], [ 43.609680021042067, 17.877290055961918 ], [ 43.612520022354921, 17.876630057253486 ], [ 43.612670022142751, 17.876600057253931 ], [ 43.616860020647742, 17.874460055899455 ], [ 43.617020022277948, 17.874460056754412 ], [ 43.619190022322663, 17.874460055899455 ], [ 43.61935002215624, 17.874460055899455 ], [ 43.621010020766398, 17.875960055771461 ], [ 43.622510022237918, 17.878120057411138 ], [ 43.622680022117237, 17.880120057104111 ], [ 43.622180020728415, 17.882800056912526 ], [ 43.620500022026768, 17.884450056736586 ], [ 43.61734002194509, 17.887460056831717 ], [ 43.615350021825421, 17.890450055609559 ], [ 43.613850022150523, 17.893950056681302 ], [ 43.612850022067818, 17.898110057064681 ], [ 43.613350020761693, 17.900110057215834 ], [ 43.615180021946109, 17.90111005738396 ], [ 43.617020022277948, 17.90111005738396 ], [ 43.617180021213194, 17.90111005738396 ], [ 43.618010021416595, 17.901940056020209 ], [ 43.618010021416595, 17.903440056206286 ], [ 43.618010021416595, 17.905270055699848 ], [ 43.618170022148476, 17.907600057139462 ], [ 43.621170020599962, 17.909960057373233 ], [ 43.624020021958572, 17.910890056275861 ], [ 43.624180021792135, 17.910930057378422 ], [ 43.628850020696149, 17.910930057378422 ], [ 43.62901002142803, 17.910940056584174 ], [ 43.631180022371076, 17.91126005565912 ], [ 43.631340022204647, 17.911270057410587 ], [ 43.633000021713123, 17.912100056359083 ], [ 43.635170020859519, 17.913930057075891 ], [ 43.637500020737818, 17.915760056848441 ], [ 43.639500020903228, 17.918100056828383 ], [ 43.644500021316752, 17.920260055748898 ], [ 43.64866002237946, 17.922590055874991 ], [ 43.651320021072323, 17.924760056600654 ], [ 43.654990020791956, 17.928260057334942 ], [ 43.65915002185465, 17.932250055810609 ], [ 43.664820021739686, 17.936080057120321 ], [ 43.666480022146473, 17.938080056942638 ], [ 43.66797002087732, 17.939080057352676 ], [ 43.668310020635936, 17.940080057240166 ], [ 43.666650021127474, 17.94108005660474 ], [ 43.664320022147493, 17.942420057217419 ], [ 43.661820022389882, 17.944750057155463 ], [ 43.659480021567539, 17.947740056846296 ], [ 43.658490022428886, 17.950080057206254 ], [ 43.65915002185465, 17.95241005623544 ], [ 43.662820021574284, 17.954570056965856 ], [ 43.664490022026804, 17.956900055797036 ], [ 43.666650021127474, 17.958080056885716 ], [ 43.66781002194206, 17.959570056813703 ], [ 43.667370021726015, 17.9636400556331 ], [ 43.667990020968794, 17.967340057118609 ], [ 43.66953002082667, 17.973500056912954 ], [ 43.672000021345362, 17.976290056626521 ], [ 43.674770022338031, 17.979990057164692 ], [ 43.678160020776851, 17.982770056589835 ], [ 43.683720021955352, 17.987080057394145 ], [ 43.689270021291463, 17.992330056597176 ], [ 43.691630021306992, 17.99488005669506 ], [ 43.694470021721528, 17.999880056671941 ], [ 43.697300022090339, 18.005210057345792 ], [ 43.700790021884913, 18.011360057320339 ], [ 43.702960021031316, 18.014700057154162 ], [ 43.705460021687237, 18.015840056697257 ], [ 43.705610022373385, 18.01590005732314 ], [ 43.707140021287195, 18.016350057094556 ], [ 43.707300022019076, 18.016370057247553 ], [ 43.708620021768922, 18.018030056905378 ], [ 43.708620021768922, 18.02003005726726 ], [ 43.707950021399107, 18.021710057003087 ], [ 43.706460021769942, 18.024040056982692 ], [ 43.703960022012332, 18.026530056629248 ], [ 43.700960021764217, 18.029190056185225 ], [ 43.697460021025599, 18.034020056809517 ], [ 43.695460020860189, 18.03569005731897 ], [ 43.693630022370712, 18.037690056084358 ], [ 43.690800022001916, 18.043180057126946 ], [ 43.687970021633113, 18.049350057129018 ], [ 43.686130021301267, 18.052180056823278 ], [ 43.684970021384991, 18.055330057283907 ], [ 43.684970022283302, 18.058180056883742 ], [ 43.684340021198146, 18.062990057350628 ], [ 43.685260020914903, 18.066380055716809 ], [ 43.68681002171683, 18.070700056820652 ], [ 43.689270021291463, 18.075330056170777 ], [ 43.692980022092385, 18.079650057393518 ], [ 43.696680021050923, 18.083350056734652 ], [ 43.699770020812402, 18.086440057031862 ], [ 43.702540020906753, 18.089210057339315 ], [ 43.705010021425444, 18.092920056579278 ], [ 43.7084000216609, 18.09662005696579 ], [ 43.711290022304155, 18.099980055925919 ], [ 43.712950021812624, 18.104150056731832 ], [ 43.71479002214447, 18.108980057321443 ], [ 43.715620022347871, 18.111810057005968 ], [ 43.716450021652939, 18.11581005740933 ], [ 43.716950021245133, 18.11864005773332 ], [ 43.716780022264146, 18.122140056671036 ], [ 43.716780022264146, 18.124800056706157 ], [ 43.716620022430568, 18.128800056597992 ], [ 43.716620022430568, 18.132300057271465 ], [ 43.717450020837333, 18.13546005661809 ], [ 43.720120021372573, 18.143280057102203 ], [ 43.723610021167133, 18.147790057103947 ], [ 43.72728002178507, 18.152620057001563 ], [ 43.731270022070156, 18.158450056381923 ], [ 43.733770020929448, 18.161110057254653 ], [ 43.739270021833484, 18.165110057001328 ], [ 43.743600021877192, 18.167440056578823 ], [ 43.74642002220024, 18.169460057058497 ], [ 43.748600021392399, 18.170090056381703 ], [ 43.748740021134481, 18.17012005678049 ], [ 43.751430021761202, 18.171090056369643 ], [ 43.7529300214361, 18.17310005676033 ], [ 43.753760020741176, 18.174940056735867 ], [ 43.75459002184288, 18.176940056860214 ], [ 43.756080022370355, 18.178440056846927 ], [ 43.758260021562513, 18.178920058420864 ], [ 43.758380022111417, 18.178920056713906 ], [ 43.764100021326854, 18.178110056812528 ], [ 43.764260022058735, 18.178080056933634 ], [ 43.768610022193933, 18.17778005700751 ], [ 43.768750021936015, 18.17778005700751 ], [ 43.770930022026484, 18.178240057366118 ], [ 43.771060020824507, 18.178260056983124 ], [ 43.773950020569451, 18.178140056686271 ], [ 43.775470021234156, 18.182170057132151 ], [ 43.776280022244379, 18.189030056640451 ], [ 43.774250021941732, 18.197100055981533 ], [ 43.769020022272755, 18.205570057268844 ], [ 43.764180021692802, 18.212430056585735 ], [ 43.758540021046684, 18.218890056855457 ], [ 43.7528800221057, 18.224940057161859 ], [ 43.749640021658074, 18.22655005726627 ], [ 43.740940022286004, 18.22655005726627 ], [ 43.740790020701553, 18.226550056413021 ], [ 43.736340021905562, 18.228170056908681 ], [ 43.735130021760568, 18.231390056670413 ], [ 43.737150022017474, 18.235430056926813 ], [ 43.739570021409136, 18.240270056647564 ], [ 43.742390020833881, 18.245520056652815 ], [ 43.749250021670733, 18.250760057273499 ], [ 43.749400020560238, 18.250770056757293 ], [ 43.756910021675438, 18.252340057299673 ], [ 43.760930022097746, 18.255720057321877 ], [ 43.764430021039736, 18.257550057140826 ], [ 43.764580021725877, 18.257540057194209 ], [ 43.767090022427546, 18.257380056263845 ], [ 43.767250022261116, 18.257370057160539 ], [ 43.76942002140752, 18.25722005689228 ], [ 43.769580022139408, 18.257220057745368 ], [ 43.772900022054664, 18.255030056650245 ], [ 43.775380021720785, 18.254560056836535 ], [ 43.777250021291536, 18.254710055989531 ], [ 43.777410022023425, 18.254720056952188 ], [ 43.779580021169828, 18.254720056952188 ], [ 43.779740021003406, 18.254720056952188 ], [ 43.783240021742031, 18.252720056004804 ], [ 43.785740022397952, 18.251210058215193 ], [ 43.790740021913159, 18.250400056704734 ], [ 43.790880021655248, 18.250390057199638 ], [ 43.796280022101854, 18.250710055580253 ], [ 43.796410020899877, 18.250710055580253 ], [ 43.799570021879887, 18.250390057199638 ], [ 43.799730020815133, 18.250380056840854 ], [ 43.808400021846609, 18.249070057756821 ], [ 43.808540020690373, 18.249070057756821 ], [ 43.811570021974028, 18.249210056958027 ], [ 43.811730021807605, 18.249220057384161 ], [ 43.814230021565201, 18.249220057384161 ], [ 43.814390023195408, 18.249220057384161 ], [ 43.81889002222011, 18.249220057384161 ], [ 43.81905002205368, 18.249220057384161 ], [ 43.821550021811291, 18.250220056993768 ], [ 43.82488002177228, 18.254050056870646 ], [ 43.826550022224822, 18.256380056920239 ], [ 43.826760022287097, 18.256690057921162 ], [ 43.828710021325477, 18.259550057070967 ], [ 43.83005002206513, 18.260880056821716 ], [ 43.831710021573599, 18.26038005728293 ], [ 43.833710020840691, 18.259550057070967 ], [ 43.835210022312218, 18.259550057070967 ], [ 43.836210022394923, 18.260880056821716 ], [ 43.837380022356946, 18.263050057398655 ], [ 43.838380020643015, 18.26471005707571 ], [ 43.839870022068801, 18.264710057928767 ], [ 43.841370021743707, 18.26638005737918 ], [ 43.843040022196234, 18.269710056604776 ], [ 43.844200022112517, 18.271540057394933 ], [ 43.846870020851114, 18.272870057410767 ], [ 43.848370021424337, 18.274210055602648 ], [ 43.849200023424359, 18.275040057370642 ], [ 43.848870021914841, 18.27670005667165 ], [ 43.848540021303641, 18.278040056843565 ], [ 43.849030020850094, 18.281040055613666 ], [ 43.849690021174176, 18.282700057204536 ], [ 43.852020021052475, 18.285030058196757 ], [ 43.85336002089381, 18.287030057022879 ], [ 43.854530021754137, 18.289030058366443 ], [ 43.854350021829077, 18.292250057374471 ], [ 43.853730020789655, 18.295320057379168 ], [ 43.852810021072891, 18.298100057225938 ], [ 43.850030021831117, 18.300570058021741 ], [ 43.847250021691025, 18.303350057210537 ], [ 43.844780022070651, 18.307960057142964 ], [ 43.843550021834169, 18.311990057390744 ], [ 43.844470021550933, 18.316000056813355 ], [ 43.845400022211756, 18.319080057791215 ], [ 43.846940022069631, 18.321550056939419 ], [ 43.848490021973241, 18.324330056944703 ], [ 43.850650021073911, 18.326800057038927 ], [ 43.853110022445179, 18.329260057605257 ], [ 43.854960021924448, 18.332660056782956 ], [ 43.856510021828058, 18.336370057361478 ], [ 43.856820022347776, 18.340680056688296 ], [ 43.857860021715126, 18.343490058136624 ], [ 43.858200020575445, 18.347330056680946 ], [ 43.858530022084963, 18.34983005735452 ], [ 43.860690022083936, 18.353320056980994 ], [ 43.862690022249346, 18.354820057285675 ], [ 43.865360021886268, 18.356660058282191 ], [ 43.867860021643878, 18.358820056638304 ], [ 43.872350022419461, 18.360980056959413 ], [ 43.876520021731288, 18.362980057820753 ], [ 43.879350022100084, 18.364310056971924 ], [ 43.881020021654294, 18.366320057247034 ], [ 43.882850021940399, 18.368810058004225 ], [ 43.88368002304211, 18.371150057314566 ], [ 43.884360021661031, 18.374810057275216 ], [ 43.884360021661031, 18.379310057236857 ], [ 43.884010021856675, 18.382470057307991 ], [ 43.884290022239156, 18.384570058240001 ], [ 43.88531002241335, 18.386750057857956 ], [ 43.886190021947144, 18.388380057350204 ], [ 43.887560021925694, 18.390080057363321 ], [ 43.888380022083346, 18.391470057388482 ], [ 43.890210022369445, 18.39513005733021 ], [ 43.892280021956736, 18.400070057618681 ], [ 43.89319002162776, 18.403180056933341 ], [ 43.893500022147478, 18.405860057037525 ], [ 43.892830020879337, 18.409450056830849 ], [ 43.892030021711491, 18.41238005827746 ], [ 43.891790022410291, 18.415120057070766 ], [ 43.892050020904662, 18.416280057239423 ], [ 43.893070021977159, 18.417570057354308 ], [ 43.894340022396612, 18.417780056973008 ], [ 43.896340021663704, 18.417280055957836 ], [ 43.897500021579972, 18.416620056688668 ], [ 43.899000022153196, 18.417280056810135 ], [ 43.899170021134189, 18.419120056824173 ], [ 43.898830022273884, 18.421100056619174 ], [ 43.899830020559953, 18.422780057091458 ], [ 43.900830022439287, 18.422950057295505 ], [ 43.902330022114185, 18.422280056971434 ], [ 43.90367002195552, 18.420950056890153 ], [ 43.904330022279602, 18.419450056667923 ], [ 43.905830021954507, 18.419950057342895 ], [ 43.906330020648383, 18.421950056590386 ], [ 43.906330020648383, 18.423450057172495 ], [ 43.906500022324323, 18.424450057679675 ], [ 43.908660022323303, 18.424780058377937 ], [ 43.91033002187752, 18.426610057886389 ], [ 43.910660021590402, 18.428440058375376 ], [ 43.910660021590402, 18.43194005757746 ], [ 43.910990022201602, 18.435270057325074 ], [ 43.912490020978183, 18.437770057346796 ], [ 43.913990021551399, 18.439770057257622 ], [ 43.914660021921222, 18.441770056900072 ], [ 43.91649002220732, 18.443100056983063 ], [ 43.918660022252048, 18.444270056950018 ], [ 43.920490021639829, 18.443770057123356 ], [ 43.922640021593068, 18.442600057160032 ], [ 43.925820021766235, 18.44010005667176 ], [ 43.92932002160655, 18.437770058199 ], [ 43.930820022179766, 18.438270057589186 ], [ 43.933150022058058, 18.441100056630194 ], [ 43.935320022102786, 18.442270056581993 ], [ 43.937310022222455, 18.442270056581993 ], [ 43.939140021610235, 18.441100056630194 ], [ 43.939140021610235, 18.438770057229043 ], [ 43.937650021981078, 18.43493005724703 ], [ 43.936980021611255, 18.432600056863983 ], [ 43.937310022222455, 18.430440056903812 ], [ 43.937480022101767, 18.428280057079057 ], [ 43.935150022223475, 18.426440057890932 ], [ 43.932480020789924, 18.422450056817354 ], [ 43.930320021689262, 18.419120056824173 ], [ 43.929150021727231, 18.415120057070766 ], [ 43.929820022097068, 18.411620057404377 ], [ 43.931810022216723, 18.408790057366382 ], [ 43.935680021952891, 18.405180057576192 ], [ 43.939140021610235, 18.40196005810801 ], [ 43.942310021737661, 18.40030005686538 ], [ 43.945310021985783, 18.400630056989915 ], [ 43.947300022105452, 18.402290057608965 ], [ 43.950300022353566, 18.405620056782212 ], [ 43.951970021907776, 18.409620057419531 ], [ 43.954470021665387, 18.414110056610223 ], [ 43.957630021747072, 18.41712005706481 ], [ 43.962630021262278, 18.419950057342895 ], [ 43.967620021630069, 18.422450056817354 ], [ 43.972460022210022, 18.424110056659572 ], [ 43.977620023355435, 18.424950056605226 ], [ 43.981290022176744, 18.425950056913635 ], [ 43.984280022379124, 18.426610057034132 ], [ 43.985120021729941, 18.428610057245912 ], [ 43.988600022377085, 18.433270057034328 ], [ 43.990610022588235, 18.436770056759045 ], [ 43.992110023161452, 18.438440056965241 ], [ 43.99528002239056, 18.439270057970734 ], [ 43.997940021981741, 18.439940056854191 ], [ 43.999440021656639, 18.441100056630194 ], [ 44.001280021090167, 18.44293005795641 ], [ 44.001280021090167, 18.444930056606331 ], [ 43.999770022267839, 18.447100056865818 ], [ 43.997770021204104, 18.449600056892503 ], [ 43.996770022019724, 18.451600057128328 ], [ 43.99744002238954, 18.453260056633948 ], [ 43.999110022842075, 18.454590057219015 ], [ 43.999110021943757, 18.456590058128977 ], [ 43.998610022351563, 18.457930057053549 ], [ 43.996940021899036, 18.458760056756269 ], [ 43.994110022428544, 18.459250057047676 ], [ 43.989610021607213, 18.458590057893417 ], [ 43.987450021608232, 18.458590057041313 ], [ 43.985780022054023, 18.459920057234132 ], [ 43.983280022296412, 18.461760056602792 ], [ 43.981780021723196, 18.462760057395673 ], [ 43.979450021844904, 18.463250057344112 ], [ 43.975460020661508, 18.462920057254447 ], [ 43.968460021879203, 18.462920057254447 ], [ 43.964460020650066, 18.463420056703693 ], [ 43.959960020727046, 18.464250057123063 ], [ 43.952300021620651, 18.465750057367444 ], [ 43.946140022189169, 18.466590058218017 ], [ 43.941130021729897, 18.467750056891855 ], [ 43.934480021853645, 18.46808005706481 ], [ 43.927320022339458, 18.468750056857516 ], [ 43.923320022008639, 18.469750056958315 ], [ 43.917660022169343, 18.470920057642505 ], [ 43.91483002180054, 18.472250057692559 ], [ 43.913830021717835, 18.474580056859679 ], [ 43.913830021717835, 18.476410057424051 ], [ 43.915490021226297, 18.479080057376549 ], [ 43.917660021271026, 18.481250056952732 ], [ 43.920490021639829, 18.482580056967546 ], [ 43.923320022008639, 18.486070057171375 ], [ 43.929990021976366, 18.492570058166667 ], [ 43.937650021981078, 18.499400057404149 ], [ 43.944640023412589, 18.504560058034688 ], [ 43.945470021819347, 18.506230056838305 ], [ 43.946140022189169, 18.50839005592206 ], [ 43.945970022309865, 18.511390057745629 ], [ 43.945640020800347, 18.514060057659389 ], [ 43.945310021985783, 18.515890058123798 ], [ 43.945640021698658, 18.517890056739013 ], [ 43.946810021660681, 18.519720057119674 ], [ 43.949470022150173, 18.523380057063054 ], [ 43.952970021990481, 18.529710057104804 ], [ 43.955470020849774, 18.53288005832059 ], [ 43.957130022154871, 18.535040057297813 ], [ 43.958970021588399, 18.535380058135697 ], [ 43.961130021587373, 18.536040057831087 ], [ 43.962300022447714, 18.537540057027233 ], [ 43.961950020846714, 18.539870056845338 ], [ 43.960630021995186, 18.541540058355242 ], [ 43.957470021913494, 18.544370057981386 ], [ 43.955640021627396, 18.546200057624773 ], [ 43.955140022035202, 18.547870056861797 ], [ 43.954800022276579, 18.549030058388055 ], [ 43.955470021748091, 18.549870057716223 ], [ 43.957470021913494, 18.549870056864581 ], [ 43.960630021995186, 18.548030057247139 ], [ 43.963790022076871, 18.54787005771345 ], [ 43.966130022000904, 18.547870056861797 ], [ 43.969120021304974, 18.548200056747099 ], [ 43.972790021024586, 18.549370057782557 ], [ 43.976620022374419, 18.550200057994545 ], [ 43.980620021806914, 18.550370057889005 ], [ 43.984620022137747, 18.550530057635061 ], [ 43.987780023117743, 18.551870058138309 ], [ 43.990110022097717, 18.553530056620854 ], [ 43.991610020874312, 18.555200057403276 ], [ 43.99328002222515, 18.556530057389434 ], [ 43.995110023409566, 18.55703005679122 ], [ 43.996940021899036, 18.55753005813467 ], [ 43.999440021656639, 18.559190057778846 ], [ 44.001770022433242, 18.561190058003483 ], [ 44.002770021617636, 18.563860057336584 ], [ 44.00227002292376, 18.56602005702209 ], [ 44.000940022229848, 18.568190057255219 ], [ 43.999270020879003, 18.571190056586968 ], [ 43.998440021573941, 18.573690058293039 ], [ 43.998270021694623, 18.576520057018801 ], [ 43.998270021694623, 18.580020058085946 ], [ 43.997940022880044, 18.583850057854889 ], [ 43.996770022019724, 18.58584005790636 ], [ 43.994440021243108, 18.586180058012332 ], [ 43.992780021734646, 18.585680057221047 ], [ 43.991440021893311, 18.583350057038537 ], [ 43.989780022384842, 18.582010056880808 ], [ 43.987780022219425, 18.581180057306899 ], [ 43.985780022054023, 18.581180058158388 ], [ 43.982950020786895, 18.583010057246238 ], [ 43.979450021844904, 18.585680057221047 ], [ 43.976790022253724, 18.588180056722081 ], [ 43.974120020820173, 18.592510057079839 ], [ 43.973470022338468, 18.596500057080906 ], [ 43.973120020737475, 18.600490057246617 ], [ 43.972960022700526, 18.603830058142499 ], [ 43.974290021597803, 18.60683005658575 ], [ 43.975460021559819, 18.608660057609754 ], [ 43.977460021725236, 18.610500058401865 ], [ 43.98012002221472, 18.612330057415068 ], [ 43.98262002197233, 18.613660056823214 ], [ 43.983450022175724, 18.616330058021759 ], [ 43.984280022379124, 18.618320058122489 ], [ 43.987280021728921, 18.619820057091882 ], [ 43.989280021894324, 18.622160057872041 ], [ 43.990930022255363, 18.625650058170425 ], [ 43.99128002205974, 18.627990057027358 ], [ 43.989280021894324, 18.63215005669921 ], [ 43.986450022423838, 18.635980057217537 ], [ 43.984780021073, 18.640140057906347 ], [ 43.984780021971311, 18.642980057101287 ], [ 43.987280020830603, 18.647310056739308 ], [ 43.989280021894324, 18.650800057083782 ], [ 43.991610021772615, 18.652640057903795 ], [ 43.994290022353603, 18.653470056935763 ], [ 43.997610022268859, 18.65513005729202 ], [ 44.001280021988478, 18.657630057243395 ], [ 44.004270022190852, 18.660970057107303 ], [ 44.008430022355249, 18.665630057725782 ], [ 44.010760022233541, 18.666630056577475 ], [ 44.013930022360967, 18.669130057271232 ], [ 44.014760021666035, 18.672290056943194 ], [ 44.014590021786731, 18.676290057296665 ], [ 44.015260022156554, 18.678290057820028 ], [ 44.01693002171077, 18.679790058042617 ], [ 44.019260020690744, 18.68095005728069 ], [ 44.021430021633776, 18.681120056751347 ], [ 44.022930022206992, 18.680620056970408 ], [ 44.024590021715468, 18.679620057237752 ], [ 44.026420022001574, 18.678620058412385 ], [ 44.027760022741205, 18.679620057237752 ], [ 44.029080021592748, 18.68195005767479 ], [ 44.03059002131338, 18.683950056926854 ], [ 44.032420021599485, 18.68545005725414 ], [ 44.03508002208897, 18.687270057359221 ], [ 44.03758002184658, 18.689110058169831 ], [ 44.03958002201199, 18.691440056584028 ], [ 44.042250021648918, 18.697610058278958 ], [ 44.044910022138403, 18.700770056898271 ], [ 44.046580022590931, 18.704270057222271 ], [ 44.048910020672594, 18.705780057292351 ], [ 44.051740021939708, 18.70627005833569 ], [ 44.053740022105124, 18.706100057735078 ], [ 44.055400021613593, 18.70710005766437 ], [ 44.056400021696298, 18.709600056730736 ], [ 44.057240021945432, 18.713430057309882 ], [ 44.057900022269514, 18.715430057340864 ], [ 44.059570021823731, 18.717260057948153 ], [ 44.063900021867433, 18.720590057788645 ], [ 44.064730022070826, 18.723590057638294 ], [ 44.065400022440649, 18.725920056867807 ], [ 44.067400021707748, 18.728760058007428 ], [ 44.070720021623004, 18.732250058099265 ], [ 44.074560022120252, 18.736080056841029 ], [ 44.078560021552754, 18.741080058400218 ], [ 44.087380022372052, 18.748910057083407 ], [ 44.08872002221338, 18.748910057083407 ], [ 44.09072002237879, 18.748740057686611 ], [ 44.09288002237777, 18.74808005720492 ], [ 44.095210022256069, 18.748080058055574 ], [ 44.097210022421478, 18.748570057267951 ], [ 44.098880021975688, 18.749410058320017 ], [ 44.101710023242809, 18.751240058381313 ], [ 44.104540022713302, 18.752910056976756 ], [ 44.10737002218378, 18.754070056625142 ], [ 44.108870022756996, 18.754410057269531 ], [ 44.110370022431894, 18.754410057269531 ], [ 44.112530022430889, 18.753570057285142 ], [ 44.114530021697981, 18.75208005720377 ], [ 44.116870021622013, 18.750740058312534 ], [ 44.1185300220288, 18.750570057356278 ], [ 44.119370022277934, 18.751740056968842 ], [ 44.119370022277934, 18.753070057314318 ], [ 44.119870022768453, 18.755070057665577 ], [ 44.120520021250158, 18.756740058337272 ], [ 44.122530020562984, 18.758570057165695 ], [ 44.125180021905052, 18.759240057898761 ], [ 44.128690020892797, 18.759070056999832 ], [ 44.131520022159911, 18.759570057053239 ], [ 44.13302002183481, 18.760730056845489 ], [ 44.134690022287344, 18.76207005805594 ], [ 44.134850022120915, 18.7637300572977 ], [ 44.134520022408033, 18.766230057029972 ], [ 44.133520022325328, 18.769230056606954 ], [ 44.131520022159911, 18.771740057854529 ], [ 44.126530021792128, 18.7757300569798 ], [ 44.124530021626718, 18.776890057868417 ], [ 44.120360022314898, 18.779880058169876 ], [ 44.113870022272209, 18.783890058154142 ], [ 44.109700022062079, 18.786890057205447 ], [ 44.10620002222177, 18.7903800565818 ], [ 44.103210022917708, 18.792710057143019 ], [ 44.102020021965892, 18.793650057950611 ], [ 44.101150021579528, 18.795620057364935 ], [ 44.097890021938731, 18.800380056891541 ], [ 44.094120021761675, 18.803650057045484 ], [ 44.087850021827023, 18.80691005726165 ], [ 44.082070023235445, 18.809670057688486 ], [ 44.07404002243657, 18.811680057894929 ], [ 44.068010021803111, 18.811930057417133 ], [ 44.065000022407567, 18.81293005774215 ], [ 44.063900020969122, 18.814200057976738 ], [ 44.069230021095528, 18.818040058330414 ], [ 44.072560021056518, 18.820200057243209 ], [ 44.078060021960567, 18.822200058164892 ], [ 44.08272002081884, 18.824200057397249 ], [ 44.085880021798843, 18.826360057079359 ], [ 44.088380021556439, 18.828860057901714 ], [ 44.089230021851321, 18.83136005808829 ], [ 44.089550022416773, 18.833860056783035 ], [ 44.090550021601167, 18.83537005804369 ], [ 44.092710021600148, 18.837350057684443 ], [ 44.094550021931987, 18.840030057339661 ], [ 44.09721002062485, 18.841520057916522 ], [ 44.098710022994695, 18.844020056704988 ], [ 44.098880021975688, 18.846350057058412 ], [ 44.099040021809259, 18.849180057318975 ], [ 44.099380021567882, 18.852340058343533 ], [ 44.100380021650587, 18.854340058265709 ], [ 44.103040021241767, 18.855840056589241 ], [ 44.106870021693283, 18.857170058099104 ], [ 44.109700022062079, 18.857670058247013 ], [ 44.112200022718, 18.858520057713498 ], [ 44.11437002186441, 18.85917005824972 ], [ 44.116870021622013, 18.85967005668666 ], [ 44.121700023054544, 18.860850057357396 ], [ 44.125530021709423, 18.862000057356877 ], [ 44.128020022319603, 18.864500057057047 ], [ 44.12919002317993, 18.867000056888003 ], [ 44.130020021586695, 18.869670056649991 ], [ 44.131690021140912, 18.872500057899565 ], [ 44.13302002183481, 18.87533005726732 ], [ 44.134350021630411, 18.878490057709502 ], [ 44.134690022287344, 18.881330057901977 ], [ 44.134690023185662, 18.88432005730354 ], [ 44.135020022898544, 18.887990057585661 ], [ 44.135690022370042, 18.891150058039603 ], [ 44.139010022285305, 18.897820057967859 ], [ 44.14019002319138, 18.89915005776604 ], [ 44.142180023311049, 18.89981005765911 ], [ 44.144020021846266, 18.89981005765911 ], [ 44.14585002123404, 18.898480057156732 ], [ 44.147850022297767, 18.896820056941955 ], [ 44.151180022258764, 18.892820057689256 ], [ 44.153010021646551, 18.891650057961552 ], [ 44.155840022015347, 18.890490057998143 ], [ 44.157170021810941, 18.89015005711601 ], [ 44.16034002193836, 18.889810057243345 ], [ 44.164340022269194, 18.889810057243345 ], [ 44.167990021897332, 18.889320058137287 ], [ 44.172500021866092, 18.889490058232429 ], [ 44.176330021419282, 18.889320058137287 ], [ 44.180490021583665, 18.888990057809906 ], [ 44.185490021997197, 18.889490058232429 ], [ 44.188320022366007, 18.89015005711601 ], [ 44.192820023187338, 18.891650057111629 ], [ 44.198980022618827, 18.894990057824437 ], [ 44.20648002189165, 18.89981005765911 ], [ 44.215310021858357, 18.90548005808698 ], [ 44.216970023163462, 18.907480057737878 ], [ 44.218470022838368, 18.909980057667905 ], [ 44.220300023124466, 18.913470057059961 ], [ 44.221800021901046, 18.915800057139805 ], [ 44.22413002088102, 18.918470057153908 ], [ 44.226800022314578, 18.920800057233357 ], [ 44.229630021785063, 18.923300057705649 ], [ 44.233460022236571, 18.925130057254911 ], [ 44.237960022159598, 18.927130058091127 ], [ 44.243450022119568, 18.9293000583558 ], [ 44.245950022775489, 18.930960057359702 ], [ 44.248960022171033, 18.932960058083431 ], [ 44.251950023271725, 18.934130057720303 ], [ 44.267270020586189, 18.939790058328782 ], [ 44.271770023204148, 18.94079005724441 ], [ 44.275100023165145, 18.941960057251439 ], [ 44.277920021691578, 18.942290056707769 ], [ 44.281930022068138, 18.942960057613902 ], [ 44.28676002170404, 18.943620057018737 ], [ 44.289090021582339, 18.944290057684857 ], [ 44.291590022238253, 18.94479005673405 ], [ 44.293920022116552, 18.945290057684151 ], [ 44.29625002199483, 18.946290057639995 ], [ 44.307750023395108, 18.951780057749318 ], [ 44.311080023356105, 18.952950058032801 ], [ 44.312910021845575, 18.952280058148194 ], [ 44.313240021558457, 18.950280057758466 ], [ 44.312910021845575, 18.947780058397363 ], [ 44.31374002115065, 18.944950057778797 ], [ 44.315570022335066, 18.942620058060786 ], [ 44.317070022009972, 18.941960057251439 ], [ 44.3189100214435, 18.940460058221888 ], [ 44.320900021563162, 18.939790058328782 ], [ 44.325570022263804, 18.9386200584097 ], [ 44.330230022020388, 18.938120057026019 ], [ 44.334560022064096, 18.937620058393644 ], [ 44.341390021865408, 18.937960058782128 ], [ 44.350720022322641, 18.937120058264174 ], [ 44.358220021595457, 18.936620058337027 ], [ 44.362050022046965, 18.935290056647837 ], [ 44.366370022044926, 18.933630058188374 ], [ 44.369210021561166, 18.933630058188374 ], [ 44.371210022624886, 18.933800058282142 ], [ 44.374210021974683, 18.935130058241661 ], [ 44.376540021852975, 18.937620058393644 ], [ 44.37770002176925, 18.939960057249976 ], [ 44.377540021935687, 18.943120057863716 ], [ 44.377540021935687, 18.946950058322152 ], [ 44.376540021852975, 18.951450058364525 ], [ 44.374210022873001, 18.959280056766698 ], [ 44.37304002201266, 18.964270057236977 ], [ 44.372540022420466, 18.967440057825787 ], [ 44.372370021642844, 18.97060005701022 ], [ 44.372710023198096, 18.973270058175338 ], [ 44.37371002238249, 18.977100057797301 ], [ 44.374870023197076, 18.982930058273791 ], [ 44.375040022178077, 18.986930056976586 ], [ 44.375040022178077, 18.992090057819006 ], [ 44.375210022057395, 18.997250058412437 ], [ 44.375040022178077, 19.001090058236844 ], [ 44.375370021890966, 19.004920058392589 ], [ 44.376370021973663, 19.011080057896962 ], [ 44.376700021686553, 19.01491005817817 ], [ 44.376540021852975, 19.019420057992239 ], [ 44.376200022094352, 19.026410057611486 ], [ 44.375700021603841, 19.029900057339802 ], [ 44.374710021566877, 19.034400057787018 ], [ 44.374210021974683, 19.038560057897026 ], [ 44.373370021725549, 19.044220058299274 ], [ 44.372370021642844, 19.05304005814909 ], [ 44.371210021726569, 19.061550058106857 ], [ 44.37100002166428, 19.063140058024498 ], [ 44.370210021643864, 19.069040056678215 ], [ 44.369380022338788, 19.073540056927438 ], [ 44.367870021719831, 19.078040058078226 ], [ 44.366870021637119, 19.082030057588319 ], [ 44.366210022211355, 19.085530058418801 ], [ 44.366710021803549, 19.088530058223071 ], [ 44.367870021719831, 19.091690057932301 ], [ 44.370040022662863, 19.093520057938743 ], [ 44.374040022095365, 19.096860057931309 ], [ 44.37837002213908, 19.098690057648227 ], [ 44.38220002169227, 19.100690057631919 ], [ 44.385860022264467, 19.101850057767159 ], [ 44.39036002308579, 19.103690057690596 ], [ 44.394360021619988, 19.107020057792393 ], [ 44.402690021994523, 19.113680058018698 ], [ 44.404520022280607, 19.116350058042755 ], [ 44.405520022363319, 19.118680058128859 ], [ 44.406020022853824, 19.121180057909992 ], [ 44.406350021668402, 19.124340059422241 ], [ 44.407020022038218, 19.127340058128276 ], [ 44.408180022852818, 19.130670057958511 ], [ 44.408680022445004, 19.133500057813936 ], [ 44.409350021916516, 19.138000058316848 ], [ 44.409860023351079, 19.140500057653799 ], [ 44.413340022201595, 19.145660057623047 ], [ 44.418340021716801, 19.154990058085367 ], [ 44.421010023150359, 19.159820057151059 ], [ 44.421180022131352, 19.162320056823805 ], [ 44.42084002327104, 19.165650057713048 ], [ 44.420340021882218, 19.167980057796704 ], [ 44.42051002176153, 19.170810058375178 ], [ 44.420840022372722, 19.172810058139529 ], [ 44.421010022252034, 19.175310057648289 ], [ 44.421180022131352, 19.177310057094285 ], [ 44.421840021557117, 19.179970058002418 ], [ 44.422180023112368, 19.182140057985769 ], [ 44.422840021639828, 19.184300057796502 ], [ 44.425010021684542, 19.18580005838902 ], [ 44.427010021849959, 19.18697005722186 ], [ 44.430170021931644, 19.187470057900175 ], [ 44.43317002307807, 19.187970057908501 ], [ 44.434830021688228, 19.18880005675879 ], [ 44.436330022261451, 19.190470058079608 ], [ 44.43716002156652, 19.192630058055038 ], [ 44.43750002222346, 19.195130057868948 ], [ 44.43783002283466, 19.197130058373684 ], [ 44.438330022426854, 19.199630057695739 ], [ 44.439330023407877, 19.201630056950986 ], [ 44.441000022063776, 19.202630057641215 ], [ 44.443830023330889, 19.202790057628683 ], [ 44.446660022801375, 19.202630057641215 ], [ 44.449490023170185, 19.201630056950986 ], [ 44.452490021621671, 19.200130058092125 ], [ 44.455650021703349, 19.196790058925277 ], [ 44.460320022403998, 19.192630058055038 ], [ 44.461810022033163, 19.189800058207865 ], [ 44.462310021625356, 19.186800057697386 ], [ 44.462310021625356, 19.184140056802413 ], [ 44.462310021625356, 19.180640057994516 ], [ 44.46315002187449, 19.17881005941106 ], [ 44.4651500220399, 19.174140058289915 ], [ 44.466810022446687, 19.170150057877972 ], [ 44.469810022694801, 19.166470058053207 ], [ 44.471480022249018, 19.165980057119352 ], [ 44.472810022942916, 19.166820057101173 ], [ 44.474310021719504, 19.169150057616598 ], [ 44.475820023236778, 19.171480056587757 ], [ 44.476970023107313, 19.174640057190317 ], [ 44.478810021642516, 19.181140058378215 ], [ 44.479800021679488, 19.185300057730057 ], [ 44.479970023355428, 19.1893000578184 ], [ 44.479800021679488, 19.197130056676958 ], [ 44.479300022985598, 19.201140058822155 ], [ 44.480640021928622, 19.204120059083134 ], [ 44.482640022094024, 19.206290057970484 ], [ 44.48480002299133, 19.207450058021525 ], [ 44.486800023156732, 19.207950058401511 ], [ 44.487300022748926, 19.208790058060821 ], [ 44.486970022137733, 19.211450058364989 ], [ 44.486470021647229, 19.21412005836433 ], [ 44.483960021843878, 19.216780058960339 ], [ 44.478810021642516, 19.220280058406704 ], [ 44.475820023236778, 19.221780058376101 ], [ 44.473490021561851, 19.222780057817761 ], [ 44.465480021752775, 19.223610058305471 ], [ 44.46131002333928, 19.224780057953016 ], [ 44.456490022850808, 19.225940059006138 ], [ 44.452490023418299, 19.227610058130843 ], [ 44.449160022558985, 19.229770058016776 ], [ 44.447660022884087, 19.231940058413691 ], [ 44.447660022884087, 19.234270058008896 ], [ 44.44983002203049, 19.237090057760625 ], [ 44.45232002264067, 19.240100058025217 ], [ 44.452650023251877, 19.241600057649102 ], [ 44.451160022724395, 19.244430058027291 ], [ 44.449160022558985, 19.247260057949518 ], [ 44.446660021903064, 19.251590058163469 ], [ 44.44583002169967, 19.255420058354368 ], [ 44.44533002210747, 19.258590058144982 ], [ 44.44583002169967, 19.261760057717694 ], [ 44.446490022023745, 19.26375005798473 ], [ 44.447660022884087, 19.264750057851039 ], [ 44.46315002187449, 19.27958005783908 ], [ 44.465980022243293, 19.283080057599847 ], [ 44.466650022613116, 19.28541005821139 ], [ 44.467310022038887, 19.28874005801767 ], [ 44.468810021713786, 19.291730056695528 ], [ 44.47165002212833, 19.294400057769959 ], [ 44.474640022330696, 19.296230058031487 ], [ 44.475640022413408, 19.297570057985375 ], [ 44.475480022579838, 19.299060057147063 ], [ 44.474640022330696, 19.300720056746808 ], [ 44.473640022247999, 19.3022300578013 ], [ 44.473810023025621, 19.304060056966733 ], [ 44.474640022330696, 19.305560057887234 ], [ 44.47597002212629, 19.30723005822647 ], [ 44.478310022050323, 19.308230057094864 ], [ 44.479970023355428, 19.309560058365616 ], [ 44.479970023355428, 19.310560058245969 ], [ 44.47964002184591, 19.312220058126364 ], [ 44.47815002311507, 19.313720057955329 ], [ 44.476310021884906, 19.314390057179544 ], [ 44.474480021598815, 19.314720057825298 ], [ 44.469810021796484, 19.314550058372209 ], [ 44.466150022122612, 19.3143900580273 ], [ 44.462980022893497, 19.314890057949356 ], [ 44.45865002195147, 19.316220059300758 ], [ 44.45465002341728, 19.317550058308196 ], [ 44.448160023374598, 19.317550058308196 ], [ 44.443330022840378, 19.318720058016531 ], [ 44.436490022095015, 19.319390057940019 ], [ 44.429840023117073, 19.318390056968735 ], [ 44.424840022703542, 19.316550057947744 ], [ 44.422180023112368, 19.314720057825298 ], [ 44.420180022946951, 19.313720058803092 ], [ 44.419180022864253, 19.313890058271518 ], [ 44.418340021716801, 19.315220057585776 ], [ 44.415840021959205, 19.316550057947744 ], [ 44.411680021794808, 19.317720058880063 ], [ 44.407020022038218, 19.318060057797862 ], [ 44.401190022319618, 19.317720058032322 ], [ 44.395020022842381, 19.317890057579632 ], [ 44.388360022022077, 19.317220056593634 ], [ 44.387200023004112, 19.31822005794147 ], [ 44.387030022226483, 19.319890057826637 ], [ 44.387530022716994, 19.321720057709431 ], [ 44.38919002222547, 19.324710057927994 ], [ 44.394190021740677, 19.331710057934568 ], [ 44.3956900223139, 19.334210057830781 ], [ 44.396360022683716, 19.337720057867365 ], [ 44.396520023415597, 19.341200058174021 ], [ 44.396010022879345, 19.345540057714548 ], [ 44.395860022193204, 19.349530058649492 ], [ 44.395020022842381, 19.35503005819761 ], [ 44.393860022926106, 19.357860057627395 ], [ 44.391860022760696, 19.361030058073389 ], [ 44.389020022346159, 19.363200057674096 ], [ 44.387360021939365, 19.365190059230954 ], [ 44.387030022226483, 19.36636005820132 ], [ 44.387360021939365, 19.369010058752888 ], [ 44.388190022142759, 19.371340057827524 ], [ 44.388860023410892, 19.374520057840371 ], [ 44.388530021901389, 19.376850057786797 ], [ 44.387870021577307, 19.379020057761235 ], [ 44.386200022921408, 19.382010057908492 ], [ 44.385030022061073, 19.385340057639716 ], [ 44.384030021978361, 19.388180059354465 ], [ 44.383370021654287, 19.391010057613535 ], [ 44.383530023284486, 19.395840058673198 ], [ 44.384030021978361, 19.399670058709241 ], [ 44.384030021978361, 19.404000058002755 ], [ 44.384860022181762, 19.407830058268384 ], [ 44.385700023329214, 19.410330059066109 ], [ 44.388190022142759, 19.414150057725404 ], [ 44.390200023252227, 19.417160058373003 ], [ 44.392360022352896, 19.41799005839389 ], [ 44.394342647304086, 19.418008682777312 ], [ 44.552941147658224, 19.419500558174615 ], [ 44.553207647260308, 19.420130308276679 ], [ 45.088888898360693, 19.448888933295187 ], [ 45.088888898360693, 19.448888933295187 ] ] ] ] } }
]
}
