{
"type": "FeatureCollection",
"name": "R12",
"crs": { "type": "name", "properties": { "name": "urn:ogc:def:crs:OGC:1.3:CRS84" } },
"features": [
{ "type": "Feature", "properties": { "REG_CODE": "R12", "Region_Nam": "الباحة", "region_n_1": "Al Bahah", "GovCounts": "10", "TotalConfi": 4450, "TotalDeath": 65, "TotalRecov": 4282, "TotalActiv": 103, "TotalCalcu": 1299, "GlobalID": "{fcaa0afb-3847-4296-8e7f-24d69c4ca0a8}", "Shape__Are": 12712570575.799999, "Shape__Len": 640363.56989699998 }, "geometry": { "type": "MultiPolygon", "coordinates": [ [ [ [ 41.449990019886158, 20.814420059174658 ], [ 41.451340019773234, 20.811540059246727 ], [ 41.453200020196562, 20.808320060075435 ], [ 41.454560019231067, 20.805610059297159 ], [ 41.456420019654395, 20.802390058604189 ], [ 41.457950018568198, 20.799000059355588 ], [ 41.461340018803654, 20.792730058917027 ], [ 41.463370020004618, 20.788830059704708 ], [ 41.464900019816739, 20.786970059134166 ], [ 41.466590020360755, 20.784760059219337 ], [ 41.468630018912506, 20.782050059342442 ], [ 41.471340018732391, 20.7800200601672 ], [ 41.47354001981266, 20.778160059391581 ], [ 41.479130020230066, 20.774760059312538 ], [ 41.48168001931807, 20.773750059080694 ], [ 41.484900019674221, 20.773070059610941 ], [ 41.489130019260493, 20.772380058650224 ], [ 41.49083001985025, 20.772050058865958 ], [ 41.492350019616637, 20.77104005983146 ], [ 41.493540018771832, 20.770360059921035 ], [ 41.493890020372824, 20.770040059348723 ], [ 41.494002422971072, 20.769788490242689 ], [ 41.497306159786412, 20.769127742003192 ], [ 41.498805755219436, 20.768927795844593 ], [ 41.500305348855832, 20.767528173724642 ], [ 41.503304538823564, 20.764628958310293 ], [ 41.504404242021337, 20.763129363100099 ], [ 41.504204295903712, 20.762529525217325 ], [ 41.505004080374206, 20.761529795162005 ], [ 41.508103242053274, 20.760929956810529 ], [ 41.513201864908588, 20.762029660176321 ], [ 41.516201053978001, 20.762029660176321 ], [ 41.518000568138305, 20.762429552005397 ], [ 41.518900325218453, 20.762629498363122 ], [ 41.519800082298602, 20.762329578727336 ], [ 41.520199973635535, 20.761629768129129 ], [ 41.520599865870786, 20.760230145611644 ], [ 41.524998676865252, 20.760130173398718 ], [ 41.526298326180651, 20.75963030798227 ], [ 41.527498001988079, 20.760030200279676 ], [ 41.530097299720566, 20.760230145611644 ], [ 41.531596894255273, 20.757730822132135 ], [ 41.5327965700627, 20.756431172678262 ], [ 41.533596353634877, 20.756031280940046 ], [ 41.537095409345824, 20.754631658666721 ], [ 41.538195111645287, 20.755531416249838 ], [ 41.540394517142524, 20.755631388984092 ], [ 41.543093788382976, 20.755131523811723 ], [ 41.547892490714375, 20.755131523811723 ], [ 41.54989195099229, 20.755931307630217 ], [ 41.551191600307696, 20.756831065038718 ], [ 41.557989762917025, 20.758830524413575 ], [ 41.566787385804275, 20.758230687110007 ], [ 41.574685251611378, 20.754331739962488 ], [ 41.577884387696727, 20.751032631073439 ], [ 41.582783064434409, 20.749033171901576 ], [ 41.584182686359462, 20.750232848224844 ], [ 41.587481794156155, 20.751132604262128 ], [ 41.588881416081215, 20.749932929196163 ], [ 41.593280227973992, 20.749133144731957 ], [ 41.597379120241179, 20.747133684809029 ], [ 41.598378849930988, 20.745934009104875 ], [ 41.601125415674517, 20.743285535346125 ], [ 41.602510019564647, 20.742730059326458 ], [ 41.605540019051681, 20.741300059630941 ], [ 41.609760020388848, 20.737920059322132 ], [ 41.615410019284084, 20.733690058972741 ], [ 41.621050019930202, 20.729100059836814 ], [ 41.624570018963688, 20.725580059025479 ], [ 41.628450019643907, 20.719940058761189 ], [ 41.632680020128497, 20.712530059105969 ], [ 41.634800019944507, 20.707950059132536 ], [ 41.636910019714776, 20.703720060317167 ], [ 41.638680019726422, 20.701250060127482 ], [ 41.642000019641678, 20.696810058928442 ], [ 41.647140019797277, 20.692440058778541 ], [ 41.651370019383563, 20.68821005925551 ], [ 41.655600018969828, 20.685740058587516 ], [ 41.660530019063167, 20.681860059778241 ], [ 41.665120019397868, 20.678320060332094 ], [ 41.670410020239615, 20.675870059596079 ], [ 41.674640019825894, 20.672340059141963 ], [ 41.679570019919218, 20.670230059256298 ], [ 41.684510020058291, 20.666700058814271 ], [ 41.687590019774035, 20.664440058672501 ], [ 41.690300019593927, 20.661220059126315 ], [ 41.693350020070746, 20.656640058611558 ], [ 41.693860019708694, 20.652750059771861 ], [ 41.693860018810376, 20.649690059124097 ], [ 41.693860018810376, 20.64580005896757 ], [ 41.694030019587998, 20.643080058898605 ], [ 41.694030019587998, 20.641390058879811 ], [ 41.694870019837133, 20.639020059386059 ], [ 41.69691002018552, 20.636480058716973 ], [ 41.700130019643346, 20.633590059017273 ], [ 41.70369001975812, 20.631050059334186 ], [ 41.707420019752192, 20.628340059047229 ], [ 41.711310019579848, 20.624780059399797 ], [ 41.71386001956617, 20.622580058616151 ], [ 41.715890019868809, 20.620380058832161 ], [ 41.716740019265373, 20.618000059838227 ], [ 41.717400019589455, 20.615460058988557 ], [ 41.718770019568019, 20.612920058660364 ], [ 41.720130018602511, 20.61105005921204 ], [ 41.722510019607839, 20.609700059016454 ], [ 41.725890019797546, 20.607990059982413 ], [ 41.728260018960498, 20.607330058851034 ], [ 41.730460020040766, 20.606820059764306 ], [ 41.732670020268465, 20.606310058970642 ], [ 41.734700019672779, 20.605970059174933 ], [ 41.737410018594353, 20.604950060281308 ], [ 41.738940020203117, 20.604110058786599 ], [ 41.740800019728127, 20.603260059057746 ], [ 41.741820019902313, 20.603780060266025 ], [ 41.742330020438573, 20.605290058989404 ], [ 41.742330020438573, 20.606820058923471 ], [ 41.742170019706691, 20.608680059025751 ], [ 41.741480020143698, 20.61088005881188 ], [ 41.741480020143698, 20.613940059690723 ], [ 41.741310020264386, 20.617310060130585 ], [ 41.740630019848822, 20.620210058756381 ], [ 41.740290020090193, 20.622920059170919 ], [ 41.739450019841058, 20.626140059268728 ], [ 41.739280019961747, 20.629360059352205 ], [ 41.738600020444494, 20.63309005881683 ], [ 41.737410018594353, 20.635800058583239 ], [ 41.735890019726284, 20.639860059132161 ], [ 41.734700019672779, 20.642920060049796 ], [ 41.734870019552091, 20.644610059039199 ], [ 41.735720019846973, 20.645970059037769 ], [ 41.737380020253759, 20.646130058880779 ], [ 41.73995002033157, 20.645630058707319 ], [ 41.742330020438573, 20.644610059039199 ], [ 41.742910018600078, 20.644180059247152 ], [ 41.744190019963582, 20.643250058646903 ], [ 41.747410020319727, 20.642240059281647 ], [ 41.751490019219858, 20.641220060415094 ], [ 41.753680020254386, 20.640880058712412 ], [ 41.758600020301976, 20.640880058712412 ], [ 41.759850019731608, 20.640830060153391 ], [ 41.762490020129626, 20.64071005883704 ], [ 41.76470002035731, 20.640370059356947 ], [ 41.768260018675456, 20.639860059972818 ], [ 41.771650019809229, 20.639530059064541 ], [ 41.774530020406743, 20.639360059361696 ], [ 41.778590020113704, 20.638850059113256 ], [ 41.782830018847406, 20.638510058838381 ], [ 41.788750019876019, 20.637660058609573 ], [ 41.793860019894396, 20.636980058706001 ], [ 41.798590019072861, 20.636140059030019 ], [ 41.801980020206635, 20.636140059030019 ], [ 41.806390019717973, 20.636310059809148 ], [ 41.810960019961186, 20.636140059030019 ], [ 41.813340020068196, 20.635290059851158 ], [ 41.817740020432105, 20.633760059282821 ], [ 41.823170020117622, 20.632580059408284 ], [ 41.826220018797819, 20.630880059403935 ], [ 41.827890020148665, 20.629510058721596 ], [ 41.832230019339796, 20.62792005990207 ], [ 41.838940020388826, 20.628620058954425 ], [ 41.844220020286521, 20.629680060182185 ], [ 41.847400018663059, 20.633210060259003 ], [ 41.851630019147649, 20.634970059048591 ], [ 41.857270019793773, 20.636030058919165 ], [ 41.863970019898744, 20.638490058600741 ], [ 41.867840018736594, 20.640620060309601 ], [ 41.871720020315124, 20.64343005926116 ], [ 41.873840020131148, 20.646960058884577 ], [ 41.878070019717413, 20.648370059179978 ], [ 41.881240018946528, 20.651190059210023 ], [ 41.886530019788282, 20.652950059246482 ], [ 41.889700019915708, 20.654710059078852 ], [ 41.894290020250416, 20.655420058677382 ], [ 41.898520019836688, 20.654000060366585 ], [ 41.901340020159751, 20.656120058941443 ], [ 41.903100020125656, 20.6600000589772 ], [ 41.90557002064434, 20.663530058775471 ], [ 41.90980002023062, 20.667050058581452 ], [ 41.921080018827922, 20.677980059268723 ], [ 41.926020019865298, 20.682210059898804 ], [ 41.92849002038399, 20.685380059910059 ], [ 41.930600020154259, 20.687150060311218 ], [ 41.934130020131796, 20.68821005925551 ], [ 41.937300021157547, 20.687850058874702 ], [ 41.939770019879603, 20.685380059069654 ], [ 41.9432900198114, 20.681510058850559 ], [ 41.946470019984574, 20.677630060320201 ], [ 41.949640021010325, 20.673400058978654 ], [ 41.953870019698279, 20.668110059200114 ], [ 41.956340019318652, 20.661410060190171 ], [ 41.958090021035439, 20.656120058941443 ], [ 41.95669001912303, 20.650830059328712 ], [ 41.954570020205338, 20.646960059725192 ], [ 41.951410020123646, 20.643080059739241 ], [ 41.948940019604954, 20.637790060396178 ], [ 41.947530020341745, 20.633560058950692 ], [ 41.946110020134462, 20.627560058751548 ], [ 41.946110020134462, 20.620160060132221 ], [ 41.94541001962741, 20.613110058677506 ], [ 41.945760020330091, 20.608880059248882 ], [ 41.950700019570853, 20.604300058859202 ], [ 41.957750020378505, 20.601830058779356 ], [ 41.961270020310295, 20.599010059100447 ], [ 41.963740020829, 20.593010059261992 ], [ 41.964450019585158, 20.589490058859809 ], [ 41.967280019953961, 20.585610058589829 ], [ 41.972210020047285, 20.579610058871715 ], [ 41.976080019783453, 20.576090059603366 ], [ 41.97961001976099, 20.57397005863211 ], [ 41.98388002042855, 20.572620058985386 ], [ 41.988470019864948, 20.572460059301214 ], [ 41.992300020316456, 20.575140058592211 ], [ 41.996130019869646, 20.578130059046053 ], [ 42.000060019880266, 20.582050059655963 ], [ 42.003110020357099, 20.584160060327246 ], [ 42.00762002122417, 20.583840058918128 ], [ 42.015620020089187, 20.582500059130389 ], [ 42.023120020260322, 20.582160059220218 ], [ 42.031940021079606, 20.581160059347599 ], [ 42.03944002035243, 20.58116006018858 ], [ 42.048930019744915, 20.582330058849529 ], [ 42.056930020406554, 20.583000058858641 ], [ 42.06259002024585, 20.584160058645324 ], [ 42.07125002033326, 20.587490058674359 ], [ 42.077650020862571, 20.58930005883008 ], [ 42.082640020332043, 20.590240059631309 ], [ 42.087010019660404, 20.589610059332003 ], [ 42.092630020215033, 20.588670058852635 ], [ 42.100130020386175, 20.587740058975406 ], [ 42.108560020319807, 20.586490059259386 ], [ 42.114500019643273, 20.585550058894476 ], [ 42.12230001939006, 20.583360059330303 ], [ 42.126680020560784, 20.580870058730518 ], [ 42.128860019752949, 20.578370059265506 ], [ 42.129598156438753, 20.576338708583489 ], [ 42.128675184196716, 20.573355768751831 ], [ 42.127407398124447, 20.568852941709533 ], [ 42.127380020169525, 20.568840059372452 ], [ 42.125720019762745, 20.566670059301938 ], [ 42.123550019718017, 20.565010059646628 ], [ 42.121720020330237, 20.563180059028369 ], [ 42.119890020044139, 20.561180058908214 ], [ 42.11789002077704, 20.559340058815984 ], [ 42.116220020324512, 20.557010059294161 ], [ 42.114890019630614, 20.554680058724113 ], [ 42.113560019835028, 20.552350058792996 ], [ 42.113230020122138, 20.54968005961096 ], [ 42.112730019631634, 20.547190059076076 ], [ 42.111390019790299, 20.544850059406198 ], [ 42.110230019874024, 20.542350059994085 ], [ 42.108230019708621, 20.540520058021706 ], [ 42.106230020441522, 20.53886005860894 ], [ 42.104900020645928, 20.536690060115756 ], [ 42.104570020933046, 20.534190059373003 ], [ 42.104230020276113, 20.53169005899225 ], [ 42.104061358886561, 20.529219663146957 ], [ 42.103295139966662, 20.528644999722406 ], [ 42.102406178839601, 20.528077051702081 ], [ 42.101344364783877, 20.527447372108053 ], [ 42.100517137679766, 20.527039932276651 ], [ 42.099751643700294, 20.526607798089636 ], [ 42.0997146043645, 20.526311477688321 ], [ 42.100122044244763, 20.525829957179511 ], [ 42.100689990608423, 20.525496596780993 ], [ 42.101085084941737, 20.525249662902411 ], [ 42.102875352742814, 20.524644676202563 ], [ 42.105051055292961, 20.524245796644852 ], [ 42.105060019581181, 20.524200058862498 ], [ 42.106560020154404, 20.522030060233146 ], [ 42.108730020199125, 20.520700060006394 ], [ 42.111390019790299, 20.519200060155729 ], [ 42.113560019835028, 20.518200058820543 ], [ 42.115720020732319, 20.516870058971836 ], [ 42.117560020165847, 20.514870058875715 ], [ 42.11789002077704, 20.512370059250383 ], [ 42.11789002077704, 20.509540058993899 ], [ 42.116060019592631, 20.507710059257015 ], [ 42.114060020325532, 20.506040059057614 ], [ 42.113230019223828, 20.503550059314136 ], [ 42.113060020242827, 20.501050059201336 ], [ 42.113890021344531, 20.4983800592947 ], [ 42.114560019917732, 20.495720059790095 ], [ 42.116060019592631, 20.493540059081301 ], [ 42.116720020815031, 20.491050059032602 ], [ 42.116720020815031, 20.488390060241972 ], [ 42.116220020324512, 20.485390058582112 ], [ 42.116560020083142, 20.482890060196027 ], [ 42.116890019796017, 20.480390058931022 ], [ 42.11772001999941, 20.47790005827714 ], [ 42.118390021267558, 20.475400059850742 ], [ 42.119730020210561, 20.473230059376778 ], [ 42.120880020081103, 20.470900058675973 ], [ 42.1215500195526, 20.468400059828703 ], [ 42.121880020163808, 20.465730058742452 ], [ 42.122550019635312, 20.463070060277445 ], [ 42.123210019959394, 20.460570059326614 ], [ 42.123890020374958, 20.458070058917333 ], [ 42.125390020049863, 20.455910059111247 ], [ 42.126540019920398, 20.453410058603232 ], [ 42.127870019715985, 20.451240057910844 ], [ 42.128380021150548, 20.448580059318751 ], [ 42.128870019798683, 20.446090060411063 ], [ 42.128870019798683, 20.443250058829634 ], [ 42.128870020697008, 20.440590059989781 ], [ 42.129050019723742, 20.437920058699625 ], [ 42.129050019723742, 20.428260058681346 ], [ 42.129550021112564, 20.418930059414304 ], [ 42.130050019806447, 20.413270059242443 ], [ 42.128550020131549, 20.410770059217008 ], [ 42.122380697085724, 20.406412912077435 ], [ 42.120231120238984, 20.410264237019955 ], [ 42.117295965777963, 20.409543322301069 ], [ 42.111992089558342, 20.407638045632574 ], [ 42.111892810448083, 20.407526355604023 ], [ 42.098800019692277, 20.407210059349328 ], [ 42.094980020184821, 20.407540058914634 ], [ 42.090300020336741, 20.407870057772818 ], [ 42.08597002029304, 20.40687005938927 ], [ 42.080640020166634, 20.404540058905212 ], [ 42.07331001987481, 20.401040059416204 ], [ 42.065640019824365, 20.395370058866995 ], [ 42.054530020208063, 20.388730059310209 ], [ 42.045940021339177, 20.383010058635765 ], [ 42.037810020082873, 20.378090059017921 ], [ 42.027960019941965, 20.371550060212464 ], [ 42.016510019668729, 20.365140057925633 ], [ 42.008380020209053, 20.359530059331053 ], [ 42.004490020381404, 20.353230059379626 ], [ 42.000820018865149, 20.345560057976581 ], [ 41.999790020441843, 20.340980059285059 ], [ 41.995560019957253, 20.334100059271424 ], [ 41.993610020020547, 20.330560059870216 ], [ 41.991660020083856, 20.327470058612519 ], [ 41.991130020354433, 20.324710058606001 ], [ 41.989460019901905, 20.322090059216187 ], [ 41.988510020047912, 20.318510058125707 ], [ 41.987920020044029, 20.314100058634796 ], [ 41.987380021167183, 20.309990058780315 ], [ 41.986130019940909, 20.30755005863444 ], [ 41.985890019741397, 20.304930059391307 ], [ 41.986720019944784, 20.302420059040312 ], [ 41.98873001925763, 20.299750057835332 ], [ 41.99024001987658, 20.297740059363814 ], [ 41.99231002036219, 20.29563006028965 ], [ 41.994230020161659, 20.293010059091614 ], [ 41.995300020564571, 20.290500060225899 ], [ 41.995540019865764, 20.288360059281384 ], [ 41.994710020560682, 20.28609005931364 ], [ 41.991740019551479, 20.285500059268475 ], [ 41.989820019752017, 20.285630057886095 ], [ 41.986960020144295, 20.285860059191805 ], [ 41.983030021031993, 20.284670059302108 ], [ 41.978970021325033, 20.283120059151234 ], [ 41.977510020036469, 20.281730057833638 ], [ 41.975840019583941, 20.28048005908224 ], [ 41.975210020295407, 20.279220059155115 ], [ 41.971860020242922, 20.276710058608529 ], [ 41.969560019603534, 20.273370058945421 ], [ 41.968720020252718, 20.269610059379769 ], [ 41.968310020173888, 20.265210058890034 ], [ 41.968720020252718, 20.262900059061479 ], [ 41.968520020236177, 20.26082005907444 ], [ 41.968250019899429, 20.259130057785757 ], [ 41.968130020248843, 20.256780058819444 ], [ 41.968010019699925, 20.254160058623874 ], [ 41.967660019895561, 20.252370059118942 ], [ 41.966910019159791, 20.250570057836253 ], [ 41.966570020299478, 20.248060059102265 ], [ 41.964890019801203, 20.245370059152183 ], [ 41.962710019710741, 20.244020058933007 ], [ 41.961930020634377, 20.241880059115804 ], [ 41.960380019832449, 20.239380058604802 ], [ 41.95872002032398, 20.237120059110843 ], [ 41.958250019970706, 20.235450058326133 ], [ 41.958250019970706, 20.232820058296927 ], [ 41.957410019721557, 20.230800059088445 ], [ 41.956570018574112, 20.229730059084822 ], [ 41.954190021162049, 20.229610059357789 ], [ 41.95192001976158, 20.229130058680582 ], [ 41.948830020000095, 20.228420058948078 ], [ 41.946090020042973, 20.22657005898278 ], [ 41.943410020360318, 20.225900057717176 ], [ 41.941310019737479, 20.223890057673913 ], [ 41.941080019583708, 20.220190058615337 ], [ 41.940240020232892, 20.218760059372592 ], [ 41.937620019926364, 20.219960058645711 ], [ 41.934050019765856, 20.220670059069125 ], [ 41.932260019662735, 20.21960005764404 ], [ 41.930350019909007, 20.21805005866138 ], [ 41.928210020001508, 20.215780059105281 ], [ 41.926660020097891, 20.213640059187188 ], [ 41.925590019694994, 20.21114005899981 ], [ 41.925280020073586, 20.208270059025136 ], [ 41.92494002031497, 20.205920059072184 ], [ 41.924600019658023, 20.203240058677189 ], [ 41.923930020186518, 20.201560058033781 ], [ 41.922760020224501, 20.199880058654884 ], [ 41.920250021319468, 20.198370059248514 ], [ 41.91821002007277, 20.197070057880431 ], [ 41.91557001967476, 20.195290058628292 ], [ 41.912480019014964, 20.192780057994469 ], [ 41.910680020662724, 20.19015005758644 ], [ 41.909160020896337, 20.188470058238092 ], [ 41.908830019386819, 20.185610059147972 ], [ 41.908310019703144, 20.183610058863739 ], [ 41.908190020052551, 20.180630057890205 ], [ 41.90735001980341, 20.179440058252752 ], [ 41.906280020298823, 20.178720057767201 ], [ 41.904250019996176, 20.178240058687852 ], [ 41.902110020088678, 20.178060058125116 ], [ 41.899490019782171, 20.178240058687852 ], [ 41.896740019779301, 20.178010059149852 ], [ 41.894360019672298, 20.176570059352812 ], [ 41.89339001972683, 20.174530058868591 ], [ 41.892210019719059, 20.172020058648069 ], [ 41.892210020617377, 20.169330058828603 ], [ 41.891710020126865, 20.167650059409784 ], [ 41.89070001999842, 20.166140058893319 ], [ 41.889240019608174, 20.164190057684042 ], [ 41.887340019001869, 20.162030057669007 ], [ 41.883520020392737, 20.158340057941842 ], [ 41.881490020090098, 20.155000058881836 ], [ 41.880660019886705, 20.151910059031415 ], [ 41.880290019990852, 20.148520059030801 ], [ 41.880180020386, 20.145710058688046 ], [ 41.880540020236111, 20.143680059384273 ], [ 41.881130020239986, 20.141780058929495 ], [ 41.881730019391291, 20.139510057637963 ], [ 41.881300020119298, 20.136940058760196 ], [ 41.881300020119298, 20.133760058659707 ], [ 41.881300020119298, 20.131060057686344 ], [ 41.88029002088917, 20.128540057826218 ], [ 41.878110020798701, 20.126360058853614 ], [ 41.876770019160737, 20.124180059005305 ], [ 41.873860020222622, 20.121160058873198 ], [ 41.87327002021874, 20.119010058161535 ], [ 41.873920021395399, 20.115950059015152 ], [ 41.874420020089282, 20.113940057882431 ], [ 41.874920018783158, 20.112430058614617 ], [ 41.876940020836685, 20.110250057780135 ], [ 41.879670020748058, 20.10611005926382 ], [ 41.88008001992857, 20.10235005903796 ], [ 41.87967001984974, 20.096700059083847 ], [ 41.878830021397242, 20.092730058927113 ], [ 41.877370020108678, 20.090010057948518 ], [ 41.875140019789498, 20.084900059194567 ], [ 41.874420020089282, 20.08171005901858 ], [ 41.874110019569564, 20.081240059359988 ], [ 41.872070020119494, 20.078190059171963 ], [ 41.87090001925916, 20.07651005818591 ], [ 41.870962527629892, 20.075853719011992 ], [ 41.870342989222841, 20.075755896606747 ], [ 41.867833645189656, 20.07655432527665 ], [ 41.862929018011521, 20.085907333719536 ], [ 41.859621245963915, 20.092636937708253 ], [ 41.856199413926369, 20.098454054384462 ], [ 41.850610419622079, 20.103586802729854 ], [ 41.847074526696275, 20.101077458616036 ], [ 41.845933916017096, 20.098682175925731 ], [ 41.846732343133198, 20.086591700704101 ], [ 41.847416710259353, 20.074729346596275 ], [ 41.853119763655272, 20.051346823753491 ], [ 41.854549052442579, 20.028069852591717 ], [ 41.854490019653682, 20.02802005888417 ], [ 41.853370019920376, 20.025940059049876 ], [ 41.852570019854213, 20.023790058844146 ], [ 41.852370020735989, 20.021270059258374 ], [ 41.85197001980459, 20.018650058792595 ], [ 41.850660019202181, 20.016840059051603 ], [ 41.848240019810518, 20.014820059096536 ], [ 41.846180020268953, 20.012600058165077 ], [ 41.845750020098642, 20.010560058066446 ], [ 41.844680019695744, 20.008540059345858 ], [ 41.844460018689404, 20.007030058311074 ], [ 41.845050019591596, 20.004500059234267 ], [ 41.847560019394948, 20.003000058602868 ], [ 41.849240019893216, 20.001310058103648 ], [ 41.850360019626521, 19.999910057779413 ], [ 41.851500018552997, 19.998700059280257 ], [ 41.853780019100896, 19.997700059054846 ], [ 41.854690019670223, 19.996190058698556 ], [ 41.854290019637148, 19.99468005905587 ], [ 41.852470020295094, 19.993870059312574 ], [ 41.850560019643062, 19.993570059319534 ], [ 41.849250020837275, 19.99327005875497 ], [ 41.84804001979397, 19.992360057682891 ], [ 41.845820018622213, 19.990450058267935 ], [ 41.84522001857259, 19.989620058873562 ], [ 41.845020018556049, 19.989340059108347 ], [ 41.844410020257321, 19.98793005911832 ], [ 41.84381001930938, 19.986620058642387 ], [ 41.843750019933239, 19.985700058234372 ], [ 41.843710020648579, 19.985010058834739 ], [ 41.843500018789669, 19.983200058895999 ], [ 41.843410020174609, 19.98118005865372 ], [ 41.843100019654898, 19.979570058978837 ], [ 41.842600020062704, 19.977960058896706 ], [ 41.8417200196306, 19.976400059269309 ], [ 41.841690020391674, 19.976340058066082 ], [ 41.840790018969777, 19.974830058116229 ], [ 41.839980019756183, 19.973220058585397 ], [ 41.839780019739642, 19.97211005878269 ], [ 41.840480020246694, 19.970900058667144 ], [ 41.840950019701665, 19.970440059264195 ], [ 41.841390020816036, 19.970000058322551 ], [ 41.842000020013081, 19.968890058646483 ], [ 41.841930019692882, 19.968210059123173 ], [ 41.841890020408222, 19.967880059141994 ], [ 41.84149002037514, 19.966770058896195 ], [ 41.841590019934252, 19.965360058773921 ], [ 41.841890020408222, 19.964150059211576 ], [ 41.842600019164387, 19.962960058661796 ], [ 41.843810020207698, 19.961740058839272 ], [ 41.844720019878714, 19.960230058394981 ], [ 41.844610020273855, 19.958510059125334 ], [ 41.84381001930938, 19.95641005902246 ], [ 41.843410020174609, 19.953880057730935 ], [ 41.843000020095793, 19.952570058886224 ], [ 41.842880018648557, 19.951280058944374 ], [ 41.842700019621823, 19.94945005869203 ], [ 41.842700019621823, 19.946930058658769 ], [ 41.843100019654898, 19.945020058612506 ], [ 41.843200021010645, 19.943100058343923 ], [ 41.842900019638357, 19.941090058845383 ], [ 41.842200020029622, 19.939080059097943 ], [ 41.841590019934252, 19.937060058805542 ], [ 41.841590019934252, 19.935570057820879 ], [ 41.841590019035948, 19.935350059137214 ], [ 41.842300019588734, 19.933840057908071 ], [ 41.84361002019115, 19.932020058000333 ], [ 41.844410020257321, 19.930810058751174 ], [ 41.845120019911796, 19.929600057836868 ], [ 41.845420020385767, 19.928290059411456 ], [ 41.845220020369233, 19.926880059299865 ], [ 41.844920019895262, 19.926080058620524 ], [ 41.844110019783351, 19.925170059248529 ], [ 41.843410020174609, 19.923960059068737 ], [ 41.843410020174609, 19.922750058072133 ], [ 41.844110019783351, 19.92174005811923 ], [ 41.844210020240773, 19.920150058640044 ], [ 41.843410020174609, 19.919030058363678 ], [ 41.84119001990117, 19.91792005842137 ], [ 41.836760020298357, 19.917320058700668 ], [ 41.836040019699816, 19.916840058805182 ], [ 41.835250018781082, 19.916310058688445 ], [ 41.834440019567495, 19.915000059081258 ], [ 41.83384002041619, 19.913190058584604 ], [ 41.833030019405967, 19.911470058890487 ], [ 41.832830020287737, 19.909670058039161 ], [ 41.832770020013285, 19.909140059234566 ], [ 41.832740019876049, 19.908750059267046 ], [ 41.831620021041061, 19.906540059028671 ], [ 41.830210019981216, 19.904830058631802 ], [ 41.829210019898511, 19.903880058309689 ], [ 41.828500020244029, 19.903210059214128 ], [ 41.825880019937507, 19.901000059309062 ], [ 41.82447001977598, 19.899890058706472 ], [ 41.822960020055341, 19.899080058170785 ], [ 41.821650020351235, 19.898580059128925 ], [ 41.819940019715744, 19.898080059352381 ], [ 41.818220019932809, 19.897370058256882 ], [ 41.815910020145999, 19.895760058882122 ], [ 41.812990020263825, 19.893650058930682 ], [ 41.809660020302829, 19.891230058740568 ], [ 41.807450020075137, 19.889410059280021 ], [ 41.80593002030875, 19.8873000583432 ], [ 41.804830018870298, 19.885080059156692 ], [ 41.804620018808016, 19.882460059231327 ], [ 41.805130020242586, 19.880650058326832 ], [ 41.805560020412891, 19.880220057928696 ], [ 41.806440019946677, 19.879340059252133 ], [ 41.807550019634249, 19.878030058639968 ], [ 41.808250020141294, 19.876220058664789 ], [ 41.808150019683872, 19.875000057618642 ], [ 41.807650020091678, 19.87370005838423 ], [ 41.806240019930144, 19.87279005772951 ], [ 41.804930020226045, 19.872490059218752 ], [ 41.803210018646482, 19.871990058186253 ], [ 41.801400019350183, 19.871790057669592 ], [ 41.799790020968743, 19.871380059031932 ], [ 41.797980018977505, 19.870580058286755 ], [ 41.796870020188258, 19.869370058961728 ], [ 41.794650019016501, 19.868060058742223 ], [ 41.793440018871507, 19.86615005935565 ], [ 41.791240019587882, 19.863320058158411 ], [ 41.79042002032854, 19.861510058365454 ], [ 41.789210020183553, 19.860290058185338 ], [ 41.787900019581137, 19.859300058012433 ], [ 41.78690002039675, 19.85867005867949 ], [ 41.786290020301372, 19.858290058006254 ], [ 41.785080020156393, 19.857580057733248 ], [ 41.783670019096547, 19.856270058980829 ], [ 41.782970020386117, 19.855050059057938 ], [ 41.783160018560288, 19.853840058691887 ], [ 41.783170020402665, 19.853760058991888 ], [ 41.783470019978317, 19.852450058272492 ], [ 41.783360020373472, 19.851890057999945 ], [ 41.783170020402665, 19.850840058816523 ], [ 41.782460018951554, 19.849320059303345 ], [ 41.782560019408983, 19.847910058975213 ], [ 41.783070019945235, 19.846700058247521 ], [ 41.783590019628917, 19.845890058786683 ], [ 41.78377001955397, 19.845600059414522 ], [ 41.784280020090222, 19.843680058044963 ], [ 41.783670019994858, 19.842370057784002 ], [ 41.783240018926236, 19.841870058988398 ], [ 41.782610019637694, 19.841420059064156 ], [ 41.780960020174966, 19.839120057749387 ], [ 41.77972001989275, 19.838220058784522 ], [ 41.77957002010492, 19.838110058608198 ], [ 41.779330019905416, 19.837930058078502 ], [ 41.78029001980515, 19.837330058782804 ], [ 41.780930020037736, 19.837330058782804 ], [ 41.781680018976878, 19.837330058782804 ], [ 41.782330020153523, 19.837110058811117 ], [ 41.783290020053258, 19.836470059388486 ], [ 41.784260019998747, 19.835720058090367 ], [ 41.785220019898475, 19.834320057853301 ], [ 41.785220019898475, 19.83314005865757 ], [ 41.78619001984395, 19.831960058301998 ], [ 41.786940019681403, 19.831210059371077 ], [ 41.788010020084307, 19.830350058954817 ], [ 41.788980020029783, 19.830030058201171 ], [ 41.789830020324665, 19.829500059285149 ], [ 41.790370020099829, 19.828530058858824 ], [ 41.790370020099829, 19.827780058102807 ], [ 41.790370020099829, 19.826490058730357 ], [ 41.790370020998139, 19.825200059027051 ], [ 41.790160019139229, 19.823700058881691 ], [ 41.790160019139229, 19.823380058257936 ], [ 41.790160019139229, 19.822630059394843 ], [ 41.790260018698348, 19.821770059024743 ], [ 41.791120019937281, 19.821020059325736 ], [ 41.791340020045304, 19.820160057851034 ], [ 41.791980020277897, 19.819200058865686 ], [ 41.792090018984432, 19.818340057686566 ], [ 41.792520020053068, 19.817060058028307 ], [ 41.792520019154757, 19.816200058795506 ], [ 41.792520020053068, 19.814800058998365 ], [ 41.792520019154757, 19.81352005873222 ], [ 41.792520020053068, 19.812440057783199 ], [ 41.792090019882757, 19.811380058359287 ], [ 41.791980019379587, 19.81019005887272 ], [ 41.791660019712452, 19.809010058019439 ], [ 41.790910019874993, 19.808580057924569 ], [ 41.790370020998139, 19.807720059318687 ], [ 41.792090019882757, 19.806220059075489 ], [ 41.792090019882757, 19.804930058034991 ], [ 41.791980019379587, 19.80418005920632 ], [ 41.791340020045304, 19.802790058734754 ], [ 41.791120019937281, 19.804290059199417 ], [ 41.790370020099829, 19.805690057692853 ], [ 41.790050020432687, 19.8063300593485 ], [ 41.789080019588901, 19.806540057891329 ], [ 41.789080019588901, 19.807190057862304 ], [ 41.789080019588901, 19.808150059202799 ], [ 41.789080019588901, 19.809120058053548 ], [ 41.788870020424923, 19.809650058150471 ], [ 41.788650020316901, 19.810930059138641 ], [ 41.788230019294012, 19.81169005802079 ], [ 41.78823002019233, 19.812760059298537 ], [ 41.787470019410826, 19.81352005873222 ], [ 41.787260020246862, 19.813840058074391 ], [ 41.787150019743684, 19.813300058758138 ], [ 41.787150019743684, 19.812120058159408 ], [ 41.787150019743684, 19.810730058606815 ], [ 41.787150019743684, 19.809980058387112 ], [ 41.786830019178232, 19.809120058053548 ], [ 41.787150019743684, 19.808580058769728 ], [ 41.787150019743684, 19.807830057709346 ], [ 41.787580019914003, 19.807080058183939 ], [ 41.787580019914003, 19.806010059265091 ], [ 41.787690020417166, 19.805250058600322 ], [ 41.787900019581137, 19.80440005827128 ], [ 41.787900019581137, 19.803430059377895 ], [ 41.787150019743684, 19.803330058232131 ], [ 41.786510020409409, 19.803330058232131 ], [ 41.785760019673646, 19.803540058199118 ], [ 41.785440019108179, 19.803230058713901 ], [ 41.785110020293615, 19.802470058293064 ], [ 41.784790019728156, 19.80161005793201 ], [ 41.784580020564199, 19.800740059235611 ], [ 41.784360019557852, 19.799790059336164 ], [ 41.783940020331606, 19.799250057968663 ], [ 41.783940019433281, 19.798500059415858 ], [ 41.784580020564199, 19.797640057886326 ], [ 41.784580020564199, 19.796780057626588 ], [ 41.784470019162711, 19.796350059135172 ], [ 41.784150020393881, 19.795060058381889 ], [ 41.784150021292206, 19.794420058734627 ], [ 41.784690020169052, 19.793140059328454 ], [ 41.784690020169052, 19.792490058602194 ], [ 41.785010019836193, 19.791310059201788 ], [ 41.784580019665874, 19.790880058614395 ], [ 41.783520020207035, 19.790980058284568 ], [ 41.782330020153523, 19.79078005888141 ], [ 41.782110020045501, 19.790350057707961 ], [ 41.782330020153523, 19.789810058127827 ], [ 41.782970018589495, 19.789060059054044 ], [ 41.782970020386117, 19.788630058307454 ], [ 41.782970020386117, 19.787670059252353 ], [ 41.782650019820665, 19.78702005817372 ], [ 41.782110020045501, 19.78670005899594 ], [ 41.781250019704878, 19.786700058150657 ], [ 41.780290020703461, 19.786380058329911 ], [ 41.780180020200291, 19.78584005796689 ], [ 41.780400020308321, 19.784990058805022 ], [ 41.780400020308321, 19.784450057955741 ], [ 41.781150019247455, 19.783810058773682 ], [ 41.781680019875196, 19.782730058232488 ], [ 41.781470019812907, 19.781980058784765 ], [ 41.780610018573974, 19.781980058784765 ], [ 41.779860019634839, 19.781980057939457 ], [ 41.778890019689356, 19.782200058943655 ], [ 41.777930019789629, 19.782730058232488 ], [ 41.776970019889895, 19.783280058006433 ], [ 41.776520019628094, 19.783810058773682 ], [ 41.776320019611553, 19.784340057777438 ], [ 41.776210020006701, 19.785090057947407 ], [ 41.775780019836382, 19.786170057701895 ], [ 41.775030019100626, 19.786590058681025 ], [ 41.773960019596032, 19.786060058711485 ], [ 41.773640019928891, 19.785200059298319 ], [ 41.773640019928891, 19.784240058164183 ], [ 41.772400019646675, 19.784140057642855 ], [ 41.773720019396521, 19.780530058744095 ], [ 41.774710020331796, 19.77625005930641 ], [ 41.774710020331796, 19.771970058188121 ], [ 41.773720019396521, 19.767030059030819 ], [ 41.772730020257882, 19.762090058977424 ], [ 41.770430019618495, 19.757480058878077 ], [ 41.766150019803504, 19.752870058283477 ], [ 41.76286001912716, 19.749910057587542 ], [ 41.759240019636252, 19.747610057787291 ], [ 41.754960018922951, 19.745960059017214 ], [ 41.751010019719153, 19.74497005833193 ], [ 41.748040019608261, 19.743000058679453 ], [ 41.745410020154317, 19.738710058936348 ], [ 41.742120020376291, 19.734110058604355 ], [ 41.739490020024022, 19.730820058167257 ], [ 41.735210020209031, 19.727860057927433 ], [ 41.731580018875746, 19.724890057680895 ], [ 41.727630019671956, 19.722590057750502 ], [ 41.722370018967439, 19.719630058118668 ], [ 41.718090020050759, 19.716660057992854 ], [ 41.711830020161848, 19.712390058080587 ], [ 41.708210019772622, 19.708440057783516 ], [ 41.704960020177559, 19.702670059233323 ], [ 41.702466817073393, 19.698092540253995 ], [ 41.701127162185138, 19.701015422705577 ], [ 41.700370582188235, 19.702858374630985 ], [ 41.699633401309889, 19.704352137306287 ], [ 41.695816448887882, 19.703411465892145 ], [ 41.695814681901716, 19.703411030346683 ], [ 41.695790018655586, 19.703420058400489 ], [ 41.69476002023228, 19.70358005826396 ], [ 41.693860019708694, 19.703690058288704 ], [ 41.69261001938073, 19.704030057656368 ], [ 41.692160020017255, 19.704370057992907 ], [ 41.692159684945651, 19.704370474084332 ], [ 41.692159657097875, 19.704370501147192 ], [ 41.691250020346224, 19.705500057675771 ], [ 41.690570019930661, 19.706410058368853 ], [ 41.689780019910238, 19.706410059214562 ], [ 41.688530021378909, 19.706520058984811 ], [ 41.687689023999809, 19.706945177206862 ], [ 41.68762001901294, 19.706980058972782 ], [ 41.687171969891942, 19.707128310198737 ], [ 41.686260019978448, 19.707430058103856 ], [ 41.685250019850002, 19.707880059351744 ], [ 41.683550020158556, 19.709130057866744 ], [ 41.682190020225747, 19.709350057818966 ], [ 41.681050020400946, 19.709470059202967 ], [ 41.680370019985389, 19.70981005812504 ], [ 41.679580020863277, 19.710600058376283 ], [ 41.679470020360114, 19.711960057877672 ], [ 41.679360841815416, 19.713097329116476 ], [ 41.679350019811196, 19.713210058330638 ], [ 41.679350019811196, 19.714230058672204 ], [ 41.679350019811196, 19.715250059272325 ], [ 41.679314924429676, 19.715295992803462 ], [ 41.678670020293943, 19.716140058094794 ], [ 41.678220019133832, 19.716940058993764 ], [ 41.677970018888573, 19.717940058927592 ], [ 41.676610019854081, 19.719300059420206 ], [ 41.674561463950923, 19.720778817614949 ], [ 41.673590020412796, 19.721480058604438 ], [ 41.673091886621435, 19.722568464049786 ], [ 41.671860597302533, 19.725258793790907 ], [ 41.671860018787484, 19.725260057968583 ], [ 41.671550019166091, 19.724970057884249 ], [ 41.670880019694586, 19.724070058149657 ], [ 41.670220021167133, 19.723260058874899 ], [ 41.669623155339536, 19.722209327129445 ], [ 41.66926002036908, 19.721570059165202 ], [ 41.666910018602678, 19.719800058284196 ], [ 41.665719445424024, 19.719338808963141 ], [ 41.663890020059704, 19.718630057763249 ], [ 41.658960019068054, 19.718180058014756 ], [ 41.657116564713952, 19.718079809749735 ], [ 41.652340019329031, 19.717820057980429 ], [ 41.648960020037634, 19.717870058315555 ], [ 41.645120020438704, 19.717080057619025 ], [ 41.643280020106857, 19.716710058690783 ], [ 41.641700020066018, 19.715950059417729 ], [ 41.639980020283083, 19.715520058640454 ], [ 41.635930019723553, 19.714630058058081 ], [ 41.632180019637993, 19.712930058408634 ], [ 41.626730019860979, 19.711570057854075 ], [ 41.62240001981727, 19.709800058739141 ], [ 41.615860020444188, 19.708240058085416 ], [ 41.610830019893442, 19.705600057577609 ], [ 41.605180020099887, 19.702430058858798 ], [ 41.595148833359431, 19.697253856815763 ], [ 41.594250018612009, 19.696790059337761 ], [ 41.592655096655982, 19.695696825081896 ], [ 41.592120018750258, 19.695330058248128 ], [ 41.592119300098034, 19.695329723326349 ], [ 41.585770020246294, 19.692370058200666 ], [ 41.583718878093435, 19.691004893592851 ], [ 41.579730019567087, 19.688350057626607 ], [ 41.5774787839729, 19.686546088591143 ], [ 41.576710019227477, 19.68593005888274 ], [ 41.576638628315216, 19.685830394319748 ], [ 41.567787976080119, 19.679726495950927 ], [ 41.565711920949497, 19.676634499394783 ], [ 41.565093521606215, 19.674779301071375 ], [ 41.562575843003827, 19.673704682319237 ], [ 41.561600019280363, 19.673640058205354 ], [ 41.561102755058208, 19.673702720732162 ], [ 41.559140019705723, 19.673950058148012 ], [ 41.558381850589079, 19.674039840984019 ], [ 41.558380018924218, 19.67404005837377 ], [ 41.555150020318962, 19.67404005837377 ], [ 41.5523300199959, 19.672430059294157 ], [ 41.551320018969136, 19.669400059159614 ], [ 41.551320019867454, 19.666390059236086 ], [ 41.551530019929736, 19.664570057990368 ], [ 41.5523300199959, 19.659130058066225 ], [ 41.553540020140886, 19.653900057671105 ], [ 41.555550018555415, 19.649450057680504 ], [ 41.557570019710631, 19.646640057994087 ], [ 41.561800020195214, 19.642820058108327 ], [ 41.564820018738182, 19.640400058207533 ], [ 41.567840019077792, 19.637980059055234 ], [ 41.571670020427618, 19.634960057810442 ], [ 41.57348001972391, 19.631940058153919 ], [ 41.574689924647473, 19.626300495060903 ], [ 41.574690018970585, 19.626300057613662 ], [ 41.574697683396593, 19.626014174162851 ], [ 41.574890019885437, 19.618840057687041 ], [ 41.574716828291926, 19.616398058038683 ], [ 41.574690018970585, 19.616020058734044 ], [ 41.574060996150763, 19.615212589136419 ], [ 41.573280018809058, 19.614210058687785 ], [ 41.571271301392123, 19.613000831080669 ], [ 41.571270018597907, 19.613000059349723 ], [ 41.568250019156622, 19.61280005821154 ], [ 41.564620425658475, 19.61280005821154 ], [ 41.564620019619959, 19.61280005821154 ], [ 41.564448662386255, 19.612628699788946 ], [ 41.563010020340201, 19.611190058307905 ], [ 41.56289768421729, 19.610055465034971 ], [ 41.562810020323667, 19.609170057746429 ], [ 41.562610020307126, 19.607360057600218 ], [ 41.561800019296896, 19.606150058340397 ], [ 41.560390019135369, 19.604940057594437 ], [ 41.559503167252593, 19.60437083840845 ], [ 41.557570018812307, 19.603130058930891 ], [ 41.553940985862901, 19.600510755738565 ], [ 41.553940019275664, 19.600510058418745 ], [ 41.551130019896654, 19.597490058078119 ], [ 41.549110019639755, 19.593860058273052 ], [ 41.548538734238193, 19.593147131111337 ], [ 41.546690020248093, 19.590840059246492 ], [ 41.545080185360035, 19.586610493824661 ], [ 41.545080019171706, 19.586610057962133 ], [ 41.545080023663282, 19.582780057057963 ], [ 41.545070939899134, 19.582734437663287 ], [ 41.544680020036942, 19.58077005770733 ], [ 41.544756057934165, 19.580639553141928 ], [ 41.54609002019847, 19.578350058249161 ], [ 41.547300020343464, 19.575920057874356 ], [ 41.548710018708356, 19.573110058667986 ], [ 41.549710019689378, 19.5696800577382 ], [ 41.550920019834372, 19.566060059052024 ], [ 41.551130019896654, 19.561830058056316 ], [ 41.551293806129152, 19.560566171408109 ], [ 41.551730019047959, 19.557200058186794 ], [ 41.551631000449142, 19.554704757213241 ], [ 41.551530019929736, 19.552160058149642 ], [ 41.551320018969136, 19.548330058060401 ], [ 41.550533355291684, 19.542784074214673 ], [ 41.55012001886989, 19.539870058219314 ], [ 41.550024776788518, 19.539178382781198 ], [ 41.549510018774519, 19.535440058990691 ], [ 41.547700018579917, 19.532010058805227 ], [ 41.54609002019847, 19.529390057804903 ], [ 41.545833782950204, 19.529211200065689 ], [ 41.544070019043261, 19.527980058397358 ], [ 41.541787485246267, 19.527170648995355 ], [ 41.541250019618509, 19.526980057645137 ], [ 41.537830020144149, 19.526770058334776 ], [ 41.534800018860487, 19.526770058334776 ], [ 41.534161333761467, 19.526721116931661 ], [ 41.529580019237244, 19.526370057643412 ], [ 41.525340019605231, 19.526370057643412 ], [ 41.522719472224701, 19.52550519101025 ], [ 41.52231001921988, 19.525370057932253 ], [ 41.521720020114323, 19.523550057307204 ], [ 41.520700037906437, 19.52033011488134 ], [ 41.520700019940122, 19.52033005815359 ], [ 41.520554066164337, 19.520220290770617 ], [ 41.518281031153158, 19.518510817823614 ], [ 41.518280019650156, 19.518510058340588 ], [ 41.516070020320768, 19.518510058340588 ], [ 41.513157215045709, 19.519061862883966 ], [ 41.512850019964624, 19.519120058379432 ], [ 41.510630019691185, 19.520530058055538 ], [ 41.508820020394886, 19.522540057889614 ], [ 41.508799290871394, 19.522581515140946 ], [ 41.508780020211923, 19.522620058140753 ], [ 41.508640987955395, 19.522934232818859 ], [ 41.50801001938467, 19.524360058037519 ], [ 41.507410020233351, 19.526570059382863 ], [ 41.50660012971592, 19.528589781395304 ], [ 41.506600019223136, 19.528590058246433 ], [ 41.504790019028526, 19.529390057804903 ], [ 41.504789991180751, 19.529390051878458 ], [ 41.501770019587241, 19.528790058930795 ], [ 41.498940177321927, 19.527180148374004 ], [ 41.498940019218431, 19.527180057782786 ], [ 41.496730019889057, 19.524560058878446 ], [ 41.495786083663234, 19.522549064777877 ], [ 41.495120019710981, 19.521130057969714 ], [ 41.494360018929477, 19.519950057996702 ], [ 41.493300018572313, 19.518310057632384 ], [ 41.492200268662145, 19.517374100577584 ], [ 41.491890920319328, 19.517110824609887 ], [ 41.491890020207414, 19.517110059193381 ], [ 41.489270019002575, 19.517110059193381 ], [ 41.487050019627453, 19.517910058860345 ], [ 41.485460020439184, 19.519120058379432 ], [ 41.48243002005384, 19.520130058004145 ], [ 41.480220019826142, 19.520730057709983 ], [ 41.477190020339116, 19.521340058683421 ], [ 41.475370020098765, 19.52275005761771 ], [ 41.473960019937238, 19.524760057778494 ], [ 41.473760019022372, 19.526570059382863 ], [ 41.473160018972749, 19.528790058930795 ], [ 41.471350018778132, 19.529800058223138 ], [ 41.469530019436093, 19.529390057804903 ], [ 41.46942024441006, 19.529226757006377 ], [ 41.468320019291106, 19.527590057883579 ], [ 41.467720019241483, 19.525370057932253 ], [ 41.467560020306237, 19.522740057596529 ], [ 41.467525650763463, 19.522052685255979 ], [ 41.467520019224942, 19.521940058130355 ], [ 41.467622280741942, 19.52163071519271 ], [ 41.468320019291106, 19.519520058390452 ], [ 41.469130019403018, 19.516700057903595 ], [ 41.470140018633153, 19.51469005826052 ], [ 41.471139909121391, 19.512470305314789 ], [ 41.471140019614168, 19.512470058918112 ], [ 41.471140019614168, 19.510860057760194 ], [ 41.470360406813377, 19.510265603101239 ], [ 41.470342577051625, 19.510252007915174 ], [ 41.470340018649694, 19.510250057883098 ], [ 41.469130019403018, 19.510460059183227 ], [ 41.468120020172883, 19.511060058371093 ], [ 41.46673695958841, 19.511854581709478 ], [ 41.466710020011355, 19.511870058188475 ], [ 41.466583078180243, 19.511924075982634 ], [ 41.46530001895151, 19.51247005807139 ], [ 41.463690019671745, 19.51207005839683 ], [ 41.461680020358912, 19.511260058734614 ], [ 41.459928241774499, 19.510095415946221 ], [ 41.459860019220244, 19.510050058810574 ], [ 41.459802043748439, 19.509992562841759 ], [ 41.45865001907525, 19.50885005833425 ], [ 41.457121732350366, 19.507312277799105 ], [ 41.45704002069381, 19.507230055717564 ], [ 41.456150020215965, 19.506410057877169 ], [ 41.456050019758528, 19.506050057594678 ], [ 41.453930019044208, 19.502530058152235 ], [ 41.450410020010729, 19.499700057992861 ], [ 41.446880020033191, 19.495120058084066 ], [ 41.44681544194404, 19.494983727619083 ], [ 41.446790018723185, 19.49493005898368 ], [ 41.44400001943567, 19.492500058799102 ], [ 41.440040020186139, 19.490780057981354 ], [ 41.438656795209965, 19.49033881439351 ], [ 41.437250020000299, 19.489890058113232 ], [ 41.436906803374647, 19.489779119212098 ], [ 41.436260019065024, 19.48957005816365 ], [ 41.433160019257798, 19.489740057739269 ], [ 41.430580020032565, 19.490780057981354 ], [ 41.429030020128948, 19.491810058076567 ], [ 41.427480019327021, 19.49233005788777 ], [ 41.425240019860411, 19.493020058087325 ], [ 41.422140019154867, 19.493360058282065 ], [ 41.419730019808938, 19.494220058276532 ], [ 41.415430019004155, 19.495250057652004 ], [ 41.413530019296168, 19.495250057652004 ], [ 41.410493249206844, 19.495830492644284 ], [ 41.409920019851008, 19.495940058105365 ], [ 41.408883504150317, 19.496013173401462 ], [ 41.407510018708457, 19.49611005691856 ], [ 41.402510020091555, 19.496110057765371 ], [ 41.400299098192377, 19.496022649206459 ], [ 41.398210019286765, 19.495940058105365 ], [ 41.396888135769771, 19.49576981523191 ], [ 41.394250019138916, 19.495430058053891 ], [ 41.393176509916501, 19.494600964016009 ], [ 41.392010018773995, 19.493700057762595 ], [ 41.389770019307385, 19.491810058076567 ], [ 41.388050018626146, 19.490090058395641 ], [ 41.387683858129812, 19.489533637100067 ], [ 41.387030020248581, 19.488540059059616 ], [ 41.38636783791668, 19.488323576308531 ], [ 41.385990019982899, 19.488200058056599 ], [ 41.382890019277362, 19.488020058083375 ], [ 41.382084179263536, 19.488051571134651 ], [ 41.373940019660033, 19.488370058223939 ], [ 41.35896001940926, 19.488700057590872 ], [ 41.350497884941269, 19.489107038862112 ], [ 41.347940019306328, 19.489230057630024 ], [ 41.346128819860816, 19.489311298896357 ], [ 41.344150019037791, 19.489400058409515 ], [ 41.342581111394075, 19.489831714912295 ], [ 41.342260019375551, 19.489920058340712 ], [ 41.342137081335657, 19.489998114289584 ], [ 41.340370018814994, 19.491120057800135 ], [ 41.337780018645709, 19.492670057838239 ], [ 41.334860018763528, 19.493360058282065 ], [ 41.332450019417614, 19.493020058087325 ], [ 41.32952002038801, 19.492500058799102 ], [ 41.32867627236751, 19.491906491901563 ], [ 41.327800018808446, 19.491290058288566 ], [ 41.326250018904844, 19.489230057630024 ], [ 41.32526249013322, 19.487540646869412 ], [ 41.325040325983679, 19.487160582382124 ], [ 41.325040018759843, 19.487160057331138 ], [ 41.325006368767625, 19.487087710369568 ], [ 41.323840019558915, 19.484580058155011 ], [ 41.322416744992431, 19.482210995027771 ], [ 41.322290018756988, 19.482000057676849 ], [ 41.320050019290377, 19.478040057761145 ], [ 41.316780019603833, 19.473570058135628 ], [ 41.315433292279344, 19.471111746054021 ], [ 41.3148900199416, 19.47012005803359 ], [ 41.313798544413508, 19.469163038950132 ], [ 41.313511072742806, 19.46891098119622 ], [ 41.313510019917295, 19.468910058018711 ], [ 41.311440020330004, 19.467540057646275 ], [ 41.309916649186349, 19.466115533248946 ], [ 41.308820019125164, 19.465090057754679 ], [ 41.307257559588557, 19.46352351992924 ], [ 41.304990018673656, 19.461250058931654 ], [ 41.302925053245211, 19.459610792749519 ], [ 41.301740019078601, 19.458670057982427 ], [ 41.297051345996458, 19.455960824390026 ], [ 41.297050020083098, 19.455960057837377 ], [ 41.291750019195604, 19.453900057765463 ], [ 41.287650020203984, 19.451920058253371 ], [ 41.28263001880066, 19.45007005768813 ], [ 41.278590020083499, 19.448750058336135 ], [ 41.272570020394092, 19.447360057870746 ], [ 41.268533488275608, 19.445923598012037 ], [ 41.267540019843331, 19.445570057770702 ], [ 41.260590018594797, 19.442930058134042 ], [ 41.25916397362397, 19.442173820682481 ], [ 41.258610020317498, 19.441880058413812 ], [ 41.257940019947682, 19.441930058070454 ], [ 41.257280019623593, 19.442460057719444 ], [ 41.257047214031196, 19.442960588859592 ], [ 41.2568800186922, 19.443320057607092 ], [ 41.256968002386067, 19.443894698205899 ], [ 41.25720002015597, 19.445410058168097 ], [ 41.258750019161269, 19.454110057605234 ], [ 41.259320019073662, 19.460920057859465 ], [ 41.259696751842569, 19.464525926966395 ], [ 41.260020019580722, 19.467620057986373 ], [ 41.259988513867071, 19.467759143772049 ], [ 41.259610018603574, 19.469430057669108 ], [ 41.259378954844507, 19.471117528962566 ], [ 41.259280018890692, 19.471840058906611 ], [ 41.259364176659773, 19.474651899377132 ], [ 41.259450019668321, 19.477520057792901 ], [ 41.258080019689764, 19.480620058649514 ], [ 41.256180019083459, 19.483720058610462 ], [ 41.254800019059161, 19.486820059358166 ], [ 41.255150018863532, 19.48957005816365 ], [ 41.25653001888783, 19.492670057838239 ], [ 41.25866146863045, 19.495958034197766 ], [ 41.258760019207017, 19.49611005691856 ], [ 41.259183687152884, 19.496640152941932 ], [ 41.260830019692619, 19.498700059290172 ], [ 41.262390019641977, 19.501280056962425 ], [ 41.263100019296452, 19.502360057616244 ], [ 41.26430414625613, 19.504175234820796 ], [ 41.264440019137787, 19.504380058411972 ], [ 41.266160018920722, 19.506790059375909 ], [ 41.266160335127694, 19.506791184711595 ], [ 41.267030019307079, 19.509890059374452 ], [ 41.268230019406325, 19.512470058918112 ], [ 41.269960020133311, 19.514540058018024 ], [ 41.270491332301368, 19.514929274643229 ], [ 41.272540019358551, 19.516430058014517 ], [ 41.274126681305532, 19.517731289170541 ], [ 41.274430019020784, 19.517980057700871 ], [ 41.275640019165778, 19.52022005793269 ], [ 41.275810019045089, 19.522280056799886 ], [ 41.275963768400914, 19.524305918246604 ], [ 41.275980019822718, 19.524520058391403 ], [ 41.275980018924407, 19.526590058103885 ], [ 41.275979997364828, 19.526590115676086 ], [ 41.275460019240718, 19.52796005815512 ], [ 41.274430019020784, 19.529170057770962 ], [ 41.272880020015492, 19.529510058158934 ], [ 41.27277441586731, 19.529510058158934 ], [ 41.270130020012623, 19.529510058158934 ], [ 41.267370019065709, 19.529510059005567 ], [ 41.26531001862584, 19.529170057770962 ], [ 41.263098974555781, 19.52923234141857 ], [ 41.262470019109607, 19.529250058125839 ], [ 41.260971541180801, 19.5293979340532 ], [ 41.25943001957684, 19.529550058257133 ], [ 41.257538553864052, 19.529461257280676 ], [ 41.253040019093262, 19.529250058125839 ], [ 41.247260019603374, 19.528330057579222 ], [ 41.247259477020947, 19.528329904337223 ], [ 41.246574676906818, 19.528135164116062 ], [ 41.240860019972374, 19.526510058125041 ], [ 41.23918060337904, 19.525801100289819 ], [ 41.235080018685849, 19.524070058368114 ], [ 41.230927623658658, 19.522588451916384 ], [ 41.230820019860666, 19.522550057923169 ], [ 41.226570020182905, 19.520720058410479 ], [ 41.225086336608513, 19.520072467404834 ], [ 41.220590498580201, 19.523137811750669 ], [ 41.216129009433416, 19.524178825767553 ], [ 41.208098327711561, 19.526112137861848 ], [ 41.192929265331138, 19.530722343913776 ], [ 41.186831896441255, 19.530276194710247 ], [ 41.184006286139244, 19.525963421586681 ], [ 41.180139662271927, 19.523286528086548 ], [ 41.175975605315699, 19.522691662768491 ], [ 41.17519036277303, 19.522406120372615 ], [ 41.175188556260991, 19.522405463355199 ], [ 41.173973177004086, 19.524237783956458 ], [ 41.173640018814659, 19.524740057984296 ], [ 41.170470018687233, 19.527560058716833 ], [ 41.168577939425106, 19.528315817925517 ], [ 41.166940018709688, 19.528970058403711 ], [ 41.162360019319046, 19.528260058142166 ], [ 41.146850019338842, 19.526500058336559 ], [ 41.136270020350281, 19.5219200588338 ], [ 41.132390019670062, 19.520150059215581 ], [ 41.127100018828301, 19.518390058284041 ], [ 41.123930019599186, 19.515220057833325 ], [ 41.119700019114596, 19.511690058297471 ], [ 41.114060019366796, 19.509930059248322 ], [ 41.110398438658017, 19.510535994315443 ], [ 41.109830018882207, 19.510630058826347 ], [ 41.109767064947086, 19.510659135655928 ], [ 41.105240019445809, 19.512750059286915 ], [ 41.10537001914215, 19.513040058099314 ], [ 41.104548588866578, 19.513313868807888 ], [ 41.104291265555126, 19.513399644016356 ], [ 41.104290019591822, 19.513400058908722 ], [ 41.103128477268214, 19.514327559129686 ], [ 41.101610019010849, 19.51554005785243 ], [ 41.098380020405592, 19.518770057028554 ], [ 41.097354853121885, 19.520476545219513 ], [ 41.096770019329199, 19.521450058142008 ], [ 41.095560019184219, 19.524350058115978 ], [ 41.095350019121931, 19.525080058382283 ], [ 41.095688653441329, 19.529272659920657 ], [ 41.095769968042525, 19.53027940936693 ], [ 41.095770020144819, 19.530280057886024 ], [ 41.096700019009006, 19.532990057583699 ], [ 41.096700508590835, 19.532990944837749 ], [ 41.096764219805735, 19.533106158290405 ], [ 41.106978802103022, 19.535400737634294 ], [ 41.111788179114939, 19.536217424646562 ], [ 41.113966009773989, 19.536943367729638 ], [ 41.113966009773989, 19.541026802048023 ], [ 41.114419724569494, 19.544565778322653 ], [ 41.116561562430057, 19.54808944525584 ], [ 41.119180019430921, 19.549420059233569 ], [ 41.12100388781689, 19.550393819251184 ], [ 41.122720018555889, 19.551310058267912 ], [ 41.125735653083204, 19.552345346834439 ], [ 41.129070018856481, 19.553490057852127 ], [ 41.132174460832793, 19.553966341173695 ], [ 41.13448002024716, 19.554320058582761 ], [ 41.136293787976065, 19.555001388370933 ], [ 41.140310019965753, 19.556510057745815 ], [ 41.143470471001713, 19.557590681285951 ], [ 41.144580018836692, 19.557970057880457 ], [ 41.146350018848331, 19.559110058107976 ], [ 41.147152039225574, 19.559565399076423 ], [ 41.147900018751947, 19.559990059128364 ], [ 41.154250019950865, 19.562460057998113 ], [ 41.162010018616357, 19.563870059226506 ], [ 41.168000019066845, 19.567050058241541 ], [ 41.170094435761889, 19.569333405281288 ], [ 41.171880018848761, 19.57128005938662 ], [ 41.172580019355813, 19.579030058390924 ], [ 41.172600020345619, 19.584100059281209 ], [ 41.173360019330488, 19.586380057796024 ], [ 41.173360349910517, 19.5863804826568 ], [ 41.173836412095334, 19.586992943696334 ], [ 41.175140020286186, 19.588670058048223 ], [ 41.177170018792204, 19.591200058293609 ], [ 41.180460020366858, 19.59450005802633 ], [ 41.18427001982856, 19.597540057855831 ], [ 41.186049912088123, 19.599202851776166 ], [ 41.188070020142845, 19.601090058216876 ], [ 41.192130018951488, 19.604640058106526 ], [ 41.198470019206354, 19.610720058875572 ], [ 41.19925894035012, 19.612238134011367 ], [ 41.201770019030121, 19.617070057616527 ], [ 41.202648556106631, 19.619698751733125 ], [ 41.203040018551249, 19.620870057613043 ], [ 41.202857204204413, 19.622256604868081 ], [ 41.202270018622315, 19.626710057692691 ], [ 41.200490020361563, 19.63026005878914 ], [ 41.197200018786909, 19.635080058220634 ], [ 41.194160019254134, 19.638120059007314 ], [ 41.190360018939856, 19.639890058993412 ], [ 41.186550020376458, 19.641420057697843 ], [ 41.178690020355212, 19.642940057720427 ], [ 41.172350020100353, 19.643700058256758 ], [ 41.164490019180796, 19.644210058057439 ], [ 41.158650019416449, 19.644970057656845 ], [ 41.152570018554272, 19.64624005800648 ], [ 41.148814607017435, 19.648231115794889 ], [ 41.14876001909257, 19.648260057816341 ], [ 41.14866859574947, 19.648340815419299 ], [ 41.145160018794833, 19.651440058757068 ], [ 41.134720018650036, 19.659790058373474 ], [ 41.123920018655134, 19.667810058092311 ], [ 41.115910018846066, 19.673740059398408 ], [ 41.106140019969409, 19.679300058661632 ], [ 41.091860019327363, 19.685230059347301 ], [ 41.085240017791705, 19.686630057895893 ], [ 41.082961108696878, 19.687956820690992 ], [ 41.082320018807849, 19.688330058709557 ], [ 41.081478171622486, 19.688712914262105 ], [ 41.078450019071688, 19.690090058726256 ], [ 41.069630019150708, 19.697140058320876 ], [ 41.067520019380439, 19.699960059001 ], [ 41.063990019402901, 19.704190058601224 ], [ 41.059760018918304, 19.705600057577609 ], [ 41.052010019400235, 19.708070059160235 ], [ 41.04390020598332, 19.710889993196258 ], [ 41.043900019133737, 19.710890058313602 ], [ 41.042525180829053, 19.711086728643348 ], [ 41.036490019374284, 19.711950057780527 ], [ 41.031560019280967, 19.713360059385877 ], [ 41.028740018957897, 19.715480059138685 ], [ 41.024860019175989, 19.71971005926369 ], [ 41.020980017597459, 19.722530058610822 ], [ 41.016040020153326, 19.727820058977009 ], [ 41.011460018966055, 19.732050058885626 ], [ 41.008640018642993, 19.734510058966634 ], [ 41.005120018711203, 19.736980057739864 ], [ 41.004410019056714, 19.740150058717706 ], [ 41.004410019056714, 19.743680059397107 ], [ 41.004410019056714, 19.748260058922082 ], [ 41.005830018365678, 19.754260058066077 ], [ 41.00793001898851, 19.758840058292051 ], [ 41.009772071970779, 19.761211609257991 ], [ 41.010400018608891, 19.762020058274054 ], [ 41.014630019093481, 19.767650057995766 ], [ 41.016377672614119, 19.769896536075215 ], [ 41.019570019232553, 19.77400005861222 ], [ 41.023800018818832, 19.779290058862472 ], [ 41.029790020167631, 19.784590058226492 ], [ 41.035080019212756, 19.791630058413482 ], [ 41.038960019892983, 19.797620058286871 ], [ 41.042096572149127, 19.801039549258508 ], [ 41.042840018776573, 19.8018500587755 ], [ 41.042840097828318, 19.801850335155166 ], [ 41.044250018938101, 19.806790058974617 ], [ 41.044893365395126, 19.810644061977214 ], [ 41.045310019295272, 19.813140058201672 ], [ 41.045211727433511, 19.814920553212069 ], [ 41.044960020389212, 19.819480058147416 ], [ 41.04636001870837, 19.82583005765515 ], [ 41.04636001870837, 19.829710057648075 ], [ 41.046060328153175, 19.833522804197116 ], [ 41.046000019756576, 19.834290058612527 ], [ 41.045999604734916, 19.834290476055031 ], [ 41.043540301354625, 19.836759777146316 ], [ 41.043540020181936, 19.836760059380381 ], [ 41.042951214937389, 19.836808034939171 ], [ 41.042190020294868, 19.836870057956702 ], [ 41.039320018844776, 19.837110058811117 ], [ 41.029790019269313, 19.832530058873459 ], [ 41.026194533005878, 19.83027969193634 ], [ 41.024150018623196, 19.829000058001526 ], [ 41.018584055326158, 19.826223654579159 ], [ 41.015690020348956, 19.824780057709138 ], [ 41.008990019345681, 19.820890059018065 ], [ 41.005098722350752, 19.818433313871768 ], [ 41.002290020139029, 19.816660058609987 ], [ 40.999424123989783, 19.814676457996981 ], [ 40.997710018951743, 19.813490058100623 ], [ 40.997709736880751, 19.813490233888881 ], [ 40.997132430970147, 19.813850537736233 ], [ 40.994890018628688, 19.815250058255145 ], [ 40.994890466888009, 19.815252144872591 ], [ 40.995529005561643, 19.818227974916148 ], [ 40.995950019884162, 19.820190058914338 ], [ 40.994190019019953, 19.82407005885258 ], [ 40.992070020102254, 19.828300058969514 ], [ 40.989250019779192, 19.833230058704487 ], [ 40.987792260685588, 19.837313436607165 ], [ 40.987490018914983, 19.838160059235523 ], [ 40.986734430658153, 19.838915647141039 ], [ 40.983960018937438, 19.841690057650762 ], [ 40.980790018810012, 19.846280058010283 ], [ 40.976910019028104, 19.850510058942007 ], [ 40.974790019212101, 19.856150059141228 ], [ 40.971270014788722, 19.861440054938495 ], [ 40.971013068769686, 19.861739530254301 ], [ 40.967040018795707, 19.866370058780952 ], [ 40.965788805742108, 19.868091585839259 ], [ 40.96422001937097, 19.870250058925894 ], [ 40.960690019393418, 19.873780059008926 ], [ 40.957520019265992, 19.87660005860975 ], [ 40.955400018551664, 19.880120058670816 ], [ 40.953990019288455, 19.884350058399104 ], [ 40.951520018769763, 19.887170058262971 ], [ 40.951357749791782, 19.887235057894049 ], [ 40.948000018837966, 19.888580058374121 ], [ 40.944120019056058, 19.889290058339213 ], [ 40.939540017868786, 19.891410058757302 ], [ 40.936720019342353, 19.8952800577731 ], [ 40.935310019180818, 19.899160057803339 ], [ 40.936585626884273, 19.90362920924256 ], [ 40.936720019342353, 19.904100057709226 ], [ 40.93677557205784, 19.904547656604567 ], [ 40.937070009265248, 19.906919981152811 ], [ 40.937070019146717, 19.90692005801489 ], [ 40.937000008046738, 19.906961905611936 ], [ 40.933540019169179, 19.90903005758685 ], [ 40.929310018684589, 19.911500058731143 ], [ 40.925790018752792, 19.913620058964028 ], [ 40.922260018775248, 19.916080058595035 ], [ 40.917680017587976, 19.917850058810565 ], [ 40.912390019441162, 19.919610058079581 ], [ 40.906390018944933, 19.921730057694422 ], [ 40.901810018655979, 19.923500058001277 ], [ 40.900083185388681, 19.923928705248773 ], [ 40.8975800190697, 19.92455005783572 ], [ 40.891940019321886, 19.924550058680268 ], [ 40.888770019194467, 19.925250059199193 ], [ 40.888769157710108, 19.925252913745595 ], [ 40.887710018837296, 19.928780058301587 ], [ 40.889820018607573, 19.931950057877529 ], [ 40.893571934799645, 19.93597989440547 ], [ 40.894410018942274, 19.936880058378783 ], [ 40.894787061629948, 19.940111851849988 ], [ 40.895110018551001, 19.942880058326512 ], [ 40.896279667271756, 19.950188284112258 ], [ 40.896520018712536, 19.951690058255718 ], [ 40.897230019265336, 19.957330058953293 ], [ 40.8975800190697, 19.96298005766673 ], [ 40.895143037925905, 19.966453002704931 ], [ 40.895110018551001, 19.966500059183954 ], [ 40.894199561637507, 19.968782673742812 ], [ 40.893000018780739, 19.971790059152944 ], [ 40.889338599768713, 19.97611204332317 ], [ 40.889120018998831, 19.976370059092687 ], [ 40.888379988664411, 19.97689265098527 ], [ 40.883130019446654, 19.980600058872948 ], [ 40.878890018916323, 19.984130057711674 ], [ 40.876090018684749, 19.986950059066992 ], [ 40.873250019168516, 19.991540059291026 ], [ 40.873590018927146, 19.992140058842267 ], [ 40.872350018644923, 19.993520058843046 ], [ 40.870680019090706, 19.996530058392885 ], [ 40.869000020389073, 19.998210058916722 ], [ 40.866990020177916, 20.000550058652589 ], [ 40.86565001943827, 20.002230059327069 ], [ 40.863640018328809, 20.003900058671345 ], [ 40.862300019385792, 20.006580058162864 ], [ 40.860290019174641, 20.010270059372296 ], [ 40.858620018722107, 20.014280059335498 ], [ 40.857340850995193, 20.017599805104503 ], [ 40.856940019122149, 20.018640058604106 ], [ 40.856645123773937, 20.019704859877031 ], [ 40.855270019567939, 20.02467005936596 ], [ 40.853959853675505, 20.029578288591225 ], [ 40.853930018828287, 20.029690057868294 ], [ 40.853670528780377, 20.031117252664501 ], [ 40.852590018986966, 20.037060058149553 ], [ 40.850580018775808, 20.04376005921231 ], [ 40.850020212046942, 20.046359558133169 ], [ 40.849570018647356, 20.048450058078302 ], [ 40.849524810930681, 20.048620693924207 ], [ 40.848240018851769, 20.053470058709618 ], [ 40.84854305024151, 20.060852997594885 ], [ 40.848570018564651, 20.061510059408125 ], [ 40.8483511099097, 20.063784524957448 ], [ 40.847570019380264, 20.071900059005969 ], [ 40.847570019380264, 20.078930058233365 ], [ 40.848240018851769, 20.083280057640724 ], [ 40.848240018851769, 20.084730059297247 ], [ 40.848240018851769, 20.087310058741704 ], [ 40.848653658005809, 20.089995621297245 ], [ 40.848910020119909, 20.09166006005248 ], [ 40.850240018118868, 20.095680060369062 ], [ 40.85124001909989, 20.097890058888964 ], [ 40.852690713842101, 20.099058674317792 ], [ 40.853040019248759, 20.099340058600269 ], [ 40.853040692985218, 20.099340444128337 ], [ 40.855350018137251, 20.100680058164482 ], [ 40.856528382312874, 20.10107397793513 ], [ 40.858820018738655, 20.101840059089643 ], [ 40.860407432575528, 20.103052843900905 ], [ 40.861320019394569, 20.103750059651446 ], [ 40.862405265106155, 20.104529829109687 ], [ 40.864020019168713, 20.105690057953641 ], [ 40.864800940814881, 20.107251902735488 ], [ 40.864980019068447, 20.10761005920136 ], [ 40.864590019979424, 20.109920058284526 ], [ 40.863673853373982, 20.111608993369813 ], [ 40.863440020108889, 20.112040058664647 ], [ 40.860550018567316, 20.112620059016734 ], [ 40.857660018822379, 20.111460057849641 ], [ 40.857048234672853, 20.111402514005718 ], [ 40.8536200192069, 20.111080059058725 ], [ 40.849770019562214, 20.11127005941308 ], [ 40.845920019019225, 20.112620059016734 ], [ 40.842260019345339, 20.114160059000625 ], [ 40.837650018919149, 20.118010059275193 ], [ 40.83611001906128, 20.122240058011521 ], [ 40.835910019044739, 20.125130059038931 ], [ 40.836333179442477, 20.125561356980402 ], [ 40.836950019310422, 20.12619005927721 ], [ 40.838000018723513, 20.1308000592791 ], [ 40.839518986325643, 20.132593067098849 ], [ 40.841880019403746, 20.135380058951625 ], [ 40.843587131057298, 20.137516976057327 ], [ 40.84470001882849, 20.138910058978411 ], [ 40.849459238406524, 20.14197024631676 ], [ 40.849630018921815, 20.142080058939737 ], [ 40.854920018865258, 20.145610059385891 ], [ 40.86030852267286, 20.14971697288625 ], [ 40.862320018578963, 20.151250058972401 ], [ 40.864699229965147, 20.153251700374664 ], [ 40.866920018959405, 20.15512005874761 ], [ 40.873250019168516, 20.160770059242036 ], [ 40.877490018800536, 20.165340057756378 ], [ 40.879950019273487, 20.171340059037895 ], [ 40.881231350143615, 20.173262055649822 ], [ 40.88277001779992, 20.175570058812955 ], [ 40.88736001903294, 20.177690058751615 ], [ 40.891589420341226, 20.18022770039676 ], [ 40.894410018942274, 20.181920059111153 ], [ 40.902160019358661, 20.186500058859583 ], [ 40.908160018956579, 20.190380057758695 ], [ 40.9140392140134, 20.194977705126021 ], [ 40.916280019268818, 20.1967300591308 ], [ 40.924790922375266, 20.203384038065298 ], [ 40.938830019112608, 20.214360059277816 ], [ 40.942010019285789, 20.216820059317914 ], [ 40.944043581408529, 20.218182198405728 ], [ 40.947280020036061, 20.22035005865019 ], [ 40.952474449114739, 20.22373411410754 ], [ 40.955400018551664, 20.225640058109271 ], [ 40.95884888359106, 20.227478583596373 ], [ 40.960690020291736, 20.228460059173525 ], [ 40.962414596092721, 20.229860513218878 ], [ 40.966330019141225, 20.233040058661988 ], [ 40.973380019050573, 20.23763005858995 ], [ 40.978670018994002, 20.241510058872336 ], [ 40.983140302647421, 20.243459863110186 ], [ 40.984310019640127, 20.243970059230264 ], [ 40.98431060444338, 20.243970238751846 ], [ 40.98890001907651, 20.245380059172469 ], [ 40.988900469132474, 20.245382103002914 ], [ 40.989214330611269, 20.246807934094786 ], [ 40.989600018685245, 20.248560058254228 ], [ 40.989219344108875, 20.249604890049508 ], [ 40.988190019422035, 20.252430059055211 ], [ 40.98466001944449, 20.254550058777443 ], [ 40.981960018772035, 20.257250059098872 ], [ 40.981660019196376, 20.260730059389882 ], [ 40.981720020369153, 20.263190057830027 ], [ 40.981790019791035, 20.265490058831009 ], [ 40.981950018726288, 20.268020059406826 ], [ 40.981510019408553, 20.270850058882228 ], [ 40.98068002010347, 20.272860058876187 ], [ 40.979710020158002, 20.274640059034684 ], [ 40.978440018840232, 20.276200059409977 ], [ 40.978000018624186, 20.27769005938276 ], [ 40.978000018624186, 20.278810058703058 ], [ 40.97837001941835, 20.279920058880663 ], [ 40.979270019043625, 20.280440058773788 ], [ 40.980067900882347, 20.280637287975839 ], [ 40.980160020419795, 20.280660059078631 ], [ 40.981420018996864, 20.280660059078631 ], [ 40.982268358306783, 20.280811793879419 ], [ 40.983880020368133, 20.281100058751846 ], [ 40.985740018096507, 20.281630058270682 ], [ 40.986852733391181, 20.28198886897836 ], [ 40.988500019043435, 20.282520058601737 ], [ 40.992880019315855, 20.284610059193202 ], [ 40.996590019218445, 20.28646005861037 ], [ 40.999781082144338, 20.28934413274153 ], [ 41.000540020218864, 20.290030058735557 ], [ 41.001336986674318, 20.290885484026806 ], [ 41.004630019164743, 20.29442005913203 ], [ 41.005161459791879, 20.295334750115085 ], [ 41.005670020328743, 20.296210058726455 ], [ 41.005975906564451, 20.29679777431955 ], [ 41.00656001900996, 20.297920058693144 ], [ 41.008120018959318, 20.299780059174267 ], [ 41.01075001931158, 20.302150058965672 ], [ 41.015210019051615, 20.305580058338172 ], [ 41.01886001867976, 20.309200059068917 ], [ 41.022180018595009, 20.312260058987171 ], [ 41.022311184304598, 20.312565597105689 ], [ 41.023030018889898, 20.314240059159321 ], [ 41.024220018943389, 20.317160060247229 ], [ 41.025520018601753, 20.320510058823785 ], [ 41.026600019050406, 20.323650058583752 ], [ 41.027900019607081, 20.327220058867166 ], [ 41.028947864860129, 20.330355533750179 ], [ 41.029200019265438, 20.331110057680295 ], [ 41.029744948096571, 20.332327453381222 ], [ 41.030610019426966, 20.334260058909944 ], [ 41.031040019597285, 20.3368500592941 ], [ 41.031430018686301, 20.338340058601482 ], [ 41.031660018840071, 20.33930005878381 ], [ 41.032170019376323, 20.340720058877707 ], [ 41.032451928678789, 20.342347860755726 ], [ 41.032480018997724, 20.342510058653005 ], [ 41.032480018997724, 20.34251085293106 ], [ 41.032480019896042, 20.344520060119134 ], [ 41.032250019742264, 20.346160060132526 ], [ 41.031810018627894, 20.347790058592185 ], [ 41.031060018790448, 20.349070058969389 ], [ 41.030240020429424, 20.349740058623148 ], [ 41.02890001789315, 20.350190059022058 ], [ 41.027260019374488, 20.350410059582234 ], [ 41.02591002038573, 20.350330058878814 ], [ 41.024650019113707, 20.350190059022058 ], [ 41.023887900104761, 20.350050646927112 ], [ 41.023010018798409, 20.349890058901771 ], [ 41.021600020433503, 20.349520057951029 ], [ 41.020180470282192, 20.349520058793274 ], [ 41.020180020226235, 20.349520058793274 ], [ 41.01990626223666, 20.349596395287037 ], [ 41.019140019062242, 20.349810058771297 ], [ 41.019128891630821, 20.349826564318327 ], [ 41.01854001991093, 20.350700058731682 ], [ 41.018090018750826, 20.351900058689242 ], [ 41.018020019328937, 20.35223005870662 ], [ 41.018060018613589, 20.352740059260846 ], [ 41.01881002024767, 20.354370059037482 ], [ 41.020000020301183, 20.356320059379357 ], [ 41.021630018774104, 20.358480059221339 ], [ 41.023705781952259, 20.359676762172398 ], [ 41.024440019051426, 20.360100058854705 ], [ 41.024442198364298, 20.360101424891081 ], [ 41.024689349153469, 20.360256368878094 ], [ 41.027040019266451, 20.361730059265462 ], [ 41.030930018195797, 20.363240058617134 ], [ 41.035470018301773, 20.363780058051312 ], [ 41.040130018956681, 20.364430059746237 ], [ 41.043328111199678, 20.364949748708991 ], [ 41.0441300192875, 20.365080058703999 ], [ 41.044782277032148, 20.365192698288034 ], [ 41.04662001899937, 20.365510059347624 ], [ 41.048490020366756, 20.365610058600957 ], [ 41.056940020391878, 20.365960059267159 ], [ 41.060290020444363, 20.365960059267159 ], [ 41.063722048360376, 20.367191495299554 ], [ 41.068139323327202, 20.368926853135189 ], [ 41.069874680708224, 20.369794532314518 ], [ 41.07389755663776, 20.371372129806421 ], [ 41.075711795083876, 20.372791968916598 ], [ 41.078157072169319, 20.374290686855119 ], [ 41.082912832335204, 20.374953957221237 ], [ 41.083620020262842, 20.37445005875032 ], [ 41.086728266604375, 20.372165363880423 ], [ 41.087130020148891, 20.371870059218725 ], [ 41.087517208409388, 20.37154273199603 ], [ 41.090170019681665, 20.369300059094218 ], [ 41.093440019368209, 20.366260059326791 ], [ 41.097180019408029, 20.364150059364654 ], [ 41.100930020391914, 20.362980058621329 ], [ 41.104430019333904, 20.36275005910219 ], [ 41.107137207426959, 20.363877250624075 ], [ 41.107240018712908, 20.363920059062263 ], [ 41.110280018245682, 20.365320058819243 ], [ 41.114250019337589, 20.367880059004381 ], [ 41.117290018870364, 20.370230059402104 ], [ 41.12080001875642, 20.373270057594379 ], [ 41.124310020439104, 20.375140058705682 ], [ 41.126576310000821, 20.376805879057084 ], [ 41.127820019426842, 20.377720059129949 ], [ 41.131090019113387, 20.379590059348367 ], [ 41.133900019390694, 20.380290059618822 ], [ 41.136940018923468, 20.37935005869268 ], [ 41.140210018610013, 20.377480058932889 ], [ 41.141850018925318, 20.37538005917499 ], [ 41.141485101697342, 20.372040275163421 ], [ 41.141390018617777, 20.371170058635766 ], [ 41.140794211005591, 20.370051514397272 ], [ 41.139270019700085, 20.367190058584992 ], [ 41.138570207839244, 20.364150876270035 ], [ 41.138570020091343, 20.364150059364654 ], [ 41.137981346000821, 20.362080206847104 ], [ 41.137640019430521, 20.360880058604746 ], [ 41.137640026617049, 20.360879997124993 ], [ 41.137651554697086, 20.360792034739241 ], [ 41.138100018839744, 20.357370059017491 ], [ 41.139270018801767, 20.354330059295364 ], [ 41.139462746057774, 20.351142028931001 ], [ 41.139510019001278, 20.350360058831608 ], [ 41.138834239769238, 20.348505262620229 ], [ 41.13857001919304, 20.347780059284464 ], [ 41.138100018839744, 20.34451005891523 ], [ 41.13857001919304, 20.340070059314968 ], [ 41.139980020252878, 20.335390058591898 ], [ 41.140680019861612, 20.331410058877516 ], [ 41.141850019823629, 20.328840059409092 ], [ 41.143250019939423, 20.326270059350495 ], [ 41.143251404243273, 20.326269175697043 ], [ 41.143261756428608, 20.326262569776574 ], [ 41.145820020017226, 20.324630058921311 ], [ 41.14840002014077, 20.324630058921311 ], [ 41.15050001896698, 20.325330058971431 ], [ 41.153319119178121, 20.325765906856336 ], [ 41.153540019398065, 20.325800058611467 ], [ 41.153991049129182, 20.325735231595527 ], [ 41.156810019982935, 20.325330058971431 ], [ 41.159140018962901, 20.325100059003535 ], [ 41.161960019285964, 20.324630059763695 ], [ 41.165000018818738, 20.324630058921311 ], [ 41.168350018871223, 20.325410059136466 ], [ 41.168350121279168, 20.325410376714359 ], [ 41.169350018953935, 20.32853005941195 ], [ 41.171220020321307, 20.332880060373625 ], [ 41.172260018790361, 20.339020059171059 ], [ 41.173210020440976, 20.340800058660879 ], [ 41.17451001920103, 20.341630059232088 ], [ 41.17629001925841, 20.342350059131007 ], [ 41.179380019019888, 20.342350059131007 ], [ 41.183420020432003, 20.341990059179707 ], [ 41.187580018799764, 20.341400059083899 ], [ 41.19079001911016, 20.341160058857295 ], [ 41.192570020065865, 20.341750059027046 ], [ 41.193290019766089, 20.342940058969113 ], [ 41.194000020318875, 20.345440060297982 ], [ 41.194120019071164, 20.34769005874778 ], [ 41.193760020119363, 20.351260058917468 ], [ 41.193050018668259, 20.354340059021307 ], [ 41.192220019363177, 20.355650058790594 ], [ 41.190910018760768, 20.358150059083741 ], [ 41.189960019805078, 20.362070059398402 ], [ 41.189840020154492, 20.365870059219777 ], [ 41.189840019256174, 20.368720059378749 ], [ 41.190200018207968, 20.370980059180742 ], [ 41.191610019267813, 20.373600059090773 ], [ 41.192100018814266, 20.377040058864893 ], [ 41.192340019013777, 20.37989005901122 ], [ 41.192690019716466, 20.382510060006819 ], [ 41.193050018668259, 20.384880057864951 ], [ 41.194120019071164, 20.387140059204121 ], [ 41.195310019124662, 20.390590059147552 ], [ 41.197330020279878, 20.394380058987434 ], [ 41.198990018890029, 20.397240058874825 ], [ 41.201600020049128, 20.400220059363807 ], [ 41.204570020160006, 20.401400058861384 ], [ 41.206830019718105, 20.403410058614632 ], [ 41.20826001907281, 20.405320058702909 ], [ 41.209560019629485, 20.407940059327672 ], [ 41.209800018930686, 20.410320058740634 ], [ 41.209210019825107, 20.412440059310317 ], [ 41.207660019023187, 20.414350059372513 ], [ 41.206460019822259, 20.416950058979435 ], [ 41.206460019822259, 20.417060059250868 ], [ 41.206460019822259, 20.419590058950121 ], [ 41.207540019372587, 20.42136005861725 ], [ 41.209330020374026, 20.423020057988495 ], [ 41.209920018581272, 20.424920058729679 ], [ 41.208610018877181, 20.427540059973378 ], [ 41.206120019165319, 20.429800059991877 ], [ 41.203740019058301, 20.43170005865311 ], [ 41.203420020289485, 20.431870058660937 ], [ 41.201350019803868, 20.434480059802038 ], [ 41.199800019001934, 20.437900059148681 ], [ 41.19918001975914, 20.442250058893293 ], [ 41.19918001975914, 20.448470058863293 ], [ 41.200730018764453, 20.453750059231183 ], [ 41.205080018899636, 20.455300059292398 ], [ 41.20788001913121, 20.453440060372269 ], [ 41.21004001913019, 20.451700059186312 ], [ 41.211360018880043, 20.449520059310597 ], [ 41.215950019214738, 20.451990058788549 ], [ 41.219120019342164, 20.456570059001578 ], [ 41.225120018940082, 20.46151005917342 ], [ 41.228990018676249, 20.46538005761294 ], [ 41.232870019356476, 20.469260059333763 ], [ 41.237100019841066, 20.471030060188617 ], [ 41.240970018678915, 20.471030059347033 ], [ 41.244860020303193, 20.471380059376411 ], [ 41.247670018783879, 20.472790057854215 ], [ 41.247670019682197, 20.475260060067505 ], [ 41.245560019911935, 20.477720060262953 ], [ 41.242740018690561, 20.478080058604796 ], [ 41.240970018678915, 20.4809000591681 ], [ 41.242740018690561, 20.483350059208419 ], [ 41.246270018668099, 20.485130058743437 ], [ 41.25085001985537, 20.489710059747228 ], [ 41.258610020317498, 20.497470058879962 ], [ 41.263900019362623, 20.501710059296418 ], [ 41.268130018948902, 20.505580059135042 ], [ 41.269540019110437, 20.509810059214541 ], [ 41.269190019306059, 20.514040058582143 ], [ 41.267780019144531, 20.517210060285457 ], [ 41.266720019685685, 20.519330059412038 ], [ 41.267780019144531, 20.521090058670531 ], [ 41.270600018569276, 20.52215005901472 ], [ 41.276100020371622, 20.52239005881955 ], [ 41.279160019097574, 20.523850059129124 ], [ 41.284550018600122, 20.526360060055804 ], [ 41.286690020304249, 20.528150059851551 ], [ 41.287780019900318, 20.530670060111323 ], [ 41.287420019151902, 20.53533006024389 ], [ 41.285260019152915, 20.539290059365193 ], [ 41.28419001875001, 20.541800060172658 ], [ 41.283470019049794, 20.54503005929363 ], [ 41.284550018600122, 20.547910059791615 ], [ 41.285980018853138, 20.550060058800444 ], [ 41.288140018852118, 20.552940058730361 ], [ 41.287780019900318, 20.555090059313912 ], [ 41.285620019901344, 20.557250059908267 ], [ 41.28490001930281, 20.561560058936028 ], [ 41.285620019901344, 20.566930059417167 ], [ 41.287780019900318, 20.572330058961256 ], [ 41.288850020303229, 20.579870059654468 ], [ 41.28850001870223, 20.584900059701035 ], [ 41.288500019600548, 20.591000058691424 ], [ 41.289570019105135, 20.597110059135659 ], [ 41.289570019105135, 20.6028600604138 ], [ 41.291370020152321, 20.608240058619756 ], [ 41.292450018804345, 20.613630059902214 ], [ 41.294240019805777, 20.617580059913276 ], [ 41.296040019954653, 20.620100059743713 ], [ 41.297830020057773, 20.620450059154397 ], [ 41.299630019308331, 20.620450059154397 ], [ 41.301430018558889, 20.61902005879713 ], [ 41.303580020308758, 20.618300058955327 ], [ 41.305020018810879, 20.619380059122978 ], [ 41.305730019363679, 20.624410060288003 ], [ 41.306090019213784, 20.629430058908177 ], [ 41.306450019962213, 20.634100059244126 ], [ 41.30824001916703, 20.638410060145887 ], [ 41.310760019914433, 20.642000059619797 ], [ 41.312560019164991, 20.643800059200917 ], [ 41.315790018668558, 20.645950058940471 ], [ 41.318660019220331, 20.649900059892587 ], [ 41.320100020417414, 20.652780059415626 ], [ 41.319740019668984, 20.657090058781272 ], [ 41.319030019116184, 20.660320059219938 ], [ 41.319030019116184, 20.664630059912017 ], [ 41.319380019818873, 20.667860058912034 ], [ 41.32082002011763, 20.67073006002343 ], [ 41.322610020220758, 20.671450058773928 ], [ 41.326210018721866, 20.671090058984898 ], [ 41.32908001927364, 20.671090058984898 ], [ 41.33183002017482, 20.670070060411355 ], [ 41.334060018697365, 20.670930059365052 ], [ 41.338290019181962, 20.673050058716999 ], [ 41.338290019181962, 20.676570058918273 ], [ 41.336880019020434, 20.680450059329559 ], [ 41.336880019020434, 20.683980058615408 ], [ 41.338990018790689, 20.686440058613403 ], [ 41.340050020046171, 20.690320059648958 ], [ 41.340050020046171, 20.694550059161973 ], [ 41.339350020437443, 20.69984006005965 ], [ 41.336170019365952, 20.707950059132536 ], [ 41.333710019791319, 20.715000060329459 ], [ 41.33124001927262, 20.720290059211216 ], [ 41.330520019572404, 20.726280059093817 ], [ 41.331590019975309, 20.73122006010616 ], [ 41.332290019584036, 20.735100059903594 ], [ 41.330180019813781, 20.73968005879841 ], [ 41.329120018558299, 20.743550058940759 ], [ 41.330180019813781, 20.748500059921799 ], [ 41.33124001927262, 20.752740060064177 ], [ 41.331940018881362, 20.755550058713162 ], [ 41.330520018674079, 20.759070058662488 ], [ 41.328100020180742, 20.762540060203886 ], [ 41.329150019593833, 20.765500059104319 ], [ 41.332020019247302, 20.77409005934738 ], [ 41.33374001903023, 20.779820060397469 ], [ 41.335450018767411, 20.783820060046516 ], [ 41.340610019014505, 20.790120058829292 ], [ 41.344040020331249, 20.793550060143396 ], [ 41.350590018851769, 20.797680059393983 ], [ 41.355610019356781, 20.800900059034952 ], [ 41.35919001956303, 20.803950059827546 ], [ 41.361880019291441, 20.8084200591599 ], [ 41.36349002036782, 20.81111005884847 ], [ 41.365640019422742, 20.813080059143594 ], [ 41.367820020411529, 20.813750058968896 ], [ 41.372560019635735, 20.814040058784364 ], [ 41.376470018656562, 20.813750058968896 ], [ 41.380100019989847, 20.813750059808591 ], [ 41.384010019908978, 20.814590058928598 ], [ 41.388180020119108, 20.816260059356971 ], [ 41.39099002039643, 20.818490060387251 ], [ 41.394620019034768, 20.822400060141202 ], [ 41.398520018908165, 20.825190060220329 ], [ 41.404670019192217, 20.82771005875059 ], [ 41.411650018781359, 20.829380059845906 ], [ 41.416670020184682, 20.829100059878485 ], [ 41.420580020103827, 20.828820059390477 ], [ 41.424320020143654, 20.827120060125953 ], [ 41.426600019793227, 20.826280060330774 ], [ 41.429480020390741, 20.825950060059139 ], [ 41.433710019977021, 20.825270059102401 ], [ 41.436770018702966, 20.824930059991754 ], [ 41.43965001930048, 20.823740058740427 ], [ 41.442200020185119, 20.823100059994047 ], [ 41.442360019120365, 20.823070058831597 ], [ 41.442540019045424, 20.822910058688304 ], [ 41.444560019302322, 20.821200058824012 ], [ 41.44660001965071, 20.818830059757371 ], [ 41.448120019417082, 20.816790058746879 ], [ 41.449990019886158, 20.814420059174658 ], [ 41.449990019886158, 20.814420059174658 ] ] ] ] } }
]
}
