{
"type": "FeatureCollection",
"name": "geo_ARA",
"crs": { "type": "name", "properties": { "name": "urn:ogc:def:crs:OGC:1.3:CRS84" } },
"features": [
{ "type": "Feature", "properties": { "id": null }, "geometry": { "type": "MultiPolygon", "coordinates": [ [ [ [ 44.82202340610948, 21.015218626338093 ], [ 44.69194773840141, 20.989203492796481 ], [ 44.591139095927659, 20.996926735566646 ], [ 44.534230991305385, 21.037575381725414 ], [ 44.487078561761209, 21.002211059567284 ], [ 44.50333802022471, 20.911158092171636 ], [ 44.510815483036069, 20.788186661790341 ], [ 47.117858941156847, 20.807097558005182 ], [ 47.111355157771449, 21.093264026962927 ], [ 45.508172553269532, 21.112775377119142 ], [ 45.238265542775295, 21.112775377119142 ], [ 44.906572590119723, 21.096515918655633 ], [ 44.869988808576849, 21.042859705726055 ], [ 44.82202340610948, 21.015218626338093 ] ] ] ] } }
]
}
